{
  "type": "FeatureCollection",
  "features": [
    {
      "type": "Feature",
      "geometry": {
        "type": "Point",
        "coordinates": [
          13.466660933445619,
          52.505243104246254
        ]
      },
      "properties": {
        "name": "Trinkbrunnen",
        "info": "Neuer Trinkbrunnen (Stand 08.2026)",
        "category": "Eure Tipps",
        "source": ""
      }
    },
    {
      "type": "Feature",
      "geometry": {
        "type": "Point",
        "coordinates": [
          13.418394778742833,
          52.47096199838943
        ]
      },
      "properties": {
        "name": "Wasserpumpe",
        "info": "In dem Naturerfahrungsraum aufm THF ist auch ne Wasserpumpe (Stand 08.2026)",
        "category": "Eure Tipps",
        "source": ""
      }
    },
    {
      "type": "Feature",
      "geometry": {
        "type": "Point",
        "coordinates": [
          13.402169476440225,
          52.54029560142377
        ]
      },
      "properties": {
        "name": "Cooling Point",
        "info": "Vernebelungsanlage (Stand 08.2026)",
        "category": "Eure Tipps",
        "source": ""
      }
    },
    {
      "type": "Feature",
      "geometry": {
        "type": "Point",
        "coordinates": [
          13.4028,
          52.5175
        ]
      },
      "properties": {
        "name": "Humboldt Forum",
        "info": "Das Humboldt Forum hat klimatisierte Räume. | Öffnungszeiten: Mittwoch bis Montag: 10:30 – 18:30 Uhr; Dienstag: Geschlossen | Wird betrieben von der Stiftung Humboldt Forum im Berliner Schloss.",
        "category": "Eure Tipps",
        "source": ""
      }
    },
    {
      "type": "Feature",
      "geometry": {
        "type": "Point",
        "coordinates": [
          13.374328,
          52.524273
        ]
      },
      "properties": {
        "name": "Futurium",
        "info": "Der Eintritt ist frei. | Öffnungszeiten: Mo, Mi, Fr, Wochenende: 10:00 - 18:00 Uhr; Do: 10:00 - 20:00 Uhr; Dienstag: Geschlossen",
        "category": "Eure Tipps",
        "source": ""
      }
    }
  ]
}
