{
  "type": "FeatureCollection",
  "features": [
    {
      "type": "Feature",
      "geometry": {
        "type": "Point",
        "coordinates": [
          13.310071,
          52.47462504
        ]
      },
      "properties": {
        "name": "Lindenkirche",
        "info": "Adresse: Homburger Str. 48, 14197 Berlin | Rollstuhlgerecht: nicht rollstuhlgerecht | Hinweis: Es erfolgt keine medizinische Betreuung. | Öffnungszeiten: Mo - So: 10:00 - 16:00 Uhr",
        "category": "Öffentlicher \"Kühler Raum\"",
        "source": "Berlin"
      }
    },
    {
      "type": "Feature",
      "geometry": {
        "type": "Point",
        "coordinates": [
          13.381947,
          52.50662104
        ]
      },
      "properties": {
        "name": "Museum - Gropius Bau",
        "info": "Adresse: Niederkirchnerstraße 7, 10963 Berlin | Rollstuhlgerecht: rollstuhlgerecht | Hinweis: Es sind barrierefreie/ rollstuhlgerechte Toiletten im Untergeschoss und im ersten Obergeschoss zu finden.\nEs erfolgt keine medizinische Betreuung. | Öffnungszeiten: Mo: 12:00 - 19:00 Uhr; \nMi - Fr: 12:00 - 19:00 Uhr; \nSa, So, Feiertage: 10:00 - 19:00 Uhr",
        "category": "Öffentlicher \"Kühler Raum\"",
        "source": "Berlin"
      }
    },
    {
      "type": "Feature",
      "geometry": {
        "type": "Point",
        "coordinates": [
          13.397175,
          52.48949304
        ]
      },
      "properties": {
        "name": "Passionskirche am Marheinekeplatz",
        "info": "Adresse: Marheinekeplatz 1, 10961 Berlin | Rollstuhlgerecht: rollstuhlgerecht | Hinweis: Es gibt Trinkwasser, Sitzgelegenheiten, Toiletten, Unterhaltung/Spiele und W-LAN, Sonnencreme und Sonnenhüte.\nEs erfolgt keine medizinische Betreuung. | Öffnungszeiten: Mo - Mi: 14:00 - 18:00 Uhr \nFreitagnachmittag mobil mit Rad für gefährdete Personen im Quartier (aufsuchende Hilfe ca. 2 Std.)",
        "category": "Öffentlicher \"Kühler Raum\"",
        "source": "Berlin"
      }
    },
    {
      "type": "Feature",
      "geometry": {
        "type": "Point",
        "coordinates": [
          13.606316,
          52.54106504
        ]
      },
      "properties": {
        "name": "Quartiersmanagement Hellersdorfer Promenade",
        "info": "Adresse: Hellersdorfer Promenade 17, 12627 Berlin | Rollstuhlgerecht: rollstuhlgerecht | Hinweis: Es erfolgt keine medizinische Betreuung. | Öffnungszeiten: Mo - Fr: 10:00 - 15:00 Uhr; \nDo: 10:00 - 18:00 Uhr",
        "category": "Öffentlicher \"Kühler Raum\"",
        "source": "Berlin"
      }
    },
    {
      "type": "Feature",
      "geometry": {
        "type": "Point",
        "coordinates": [
          13.59119,
          52.54586504
        ]
      },
      "properties": {
        "name": "Stadtteilzentrum Hellersdorfer Terrassen",
        "info": "Adresse: Alte Hellersdorfer Straße 121, 12629 Berlin | Rollstuhlgerecht: eingeschränkt rollstuhlgerecht | Hinweis: Das WC ist nur eingeschränkt mit Rollstühlen nutzbar. \nEs erfolgt keine medizinische Betreuung. | Öffnungszeiten: Mo - Fr: 10:00 - 18:00 Uhr",
        "category": "Öffentlicher \"Kühler Raum\"",
        "source": "Berlin"
      }
    },
    {
      "type": "Feature",
      "geometry": {
        "type": "Point",
        "coordinates": [
          13.555077,
          52.55388604
        ]
      },
      "properties": {
        "name": "SOPHIA Berlin GmbH",
        "info": "Adresse: Walter-Felsenstein-Straße 13, 12687 Berlin | Rollstuhlgerecht: rollstuhlgerecht | Hinweis: Es erfolgt keine medizinische Betreuung. | Öffnungszeiten: Mo - Fr: 08:00 - 16:00 Uhr",
        "category": "Öffentlicher \"Kühler Raum\"",
        "source": "Berlin"
      }
    },
    {
      "type": "Feature",
      "geometry": {
        "type": "Point",
        "coordinates": [
          13.56349,
          52.54743604
        ]
      },
      "properties": {
        "name": "SOPHIA Berlin GmbH",
        "info": "Adresse: Oppermannstraße 5, 12679 Berlin | Rollstuhlgerecht: nicht rollstuhlgerecht | Hinweis: Es erfolgt keine medizinische Betreuung. | Öffnungszeiten: Mo - Fr: 08:00 - 16:00 Uhr",
        "category": "Öffentlicher \"Kühler Raum\"",
        "source": "Berlin"
      }
    },
    {
      "type": "Feature",
      "geometry": {
        "type": "Point",
        "coordinates": [
          13.593773,
          52.52097104
        ]
      },
      "properties": {
        "name": "Pflegewohnzentrum Kaulsdorf-Nord - Wohnpark am Cecilienplatz",
        "info": "Adresse: Lily-Braun-Str. 54, 12619 Berlin | Rollstuhlgerecht: rollstuhlgerecht | Hinweis: Sie haben die Möglichkeit sich vor Hitze im Foyer zu schützen. Bitte melden Sie sich an der Rezeption.\nEs gibt Trinkwasser, Sitzgelegenheiten, Toiletten und Unterhaltungsangebote/Spiele.  \nEs erfolgt keine medizinische Betreuung. | Öffnungszeiten: Mo - So: 09:00 - 18:00 Uhr",
        "category": "Öffentlicher \"Kühler Raum\"",
        "source": "Berlin"
      }
    },
    {
      "type": "Feature",
      "geometry": {
        "type": "Point",
        "coordinates": [
          13.555897,
          52.54755804
        ]
      },
      "properties": {
        "name": "Bezirkszentralbibliothek Mark Twain - Im Freizeitforum",
        "info": "Adresse: Marzahner Promenade 54/55, 12679 Berlin | Rollstuhlgerecht: rollstuhlgerecht | Hinweis: Es erfolgt keine medizinische Betreuung. | Öffnungszeiten: Mo, Di, Do, Fr: 10:00 - 19:30 Uhr\nMi: 14:00 - 19:30 Uhr\nSa: 10:00 - 14:00 Uhr",
        "category": "Öffentlicher \"Kühler Raum\"",
        "source": "Berlin"
      }
    },
    {
      "type": "Feature",
      "geometry": {
        "type": "Point",
        "coordinates": [
          13.592725,
          52.52930804
        ]
      },
      "properties": {
        "name": "Stadtteilbibliothek Kaulsdorf-Nord, Im Forum Kienberg",
        "info": "Adresse: Neue Grottkauer Straße 5, 12619 Berlin | Rollstuhlgerecht: rollstuhlgerecht | Hinweis: Es erfolgt keine medizinische Betreuung. | Öffnungszeiten: Mo, Di, Do: 12:00 - 19:00 Uhr\nMi, Fr: 09:00 - 13:00 Uhr",
        "category": "Öffentlicher \"Kühler Raum\"",
        "source": "Berlin"
      }
    },
    {
      "type": "Feature",
      "geometry": {
        "type": "Point",
        "coordinates": [
          13.36348,
          52.50374704
        ]
      },
      "properties": {
        "name": "Nachbarschaftstreff Lützowstraße",
        "info": "Adresse: Lützowstr. 27, 10758 Berlin | Rollstuhlgerecht: rollstuhlgerecht | Hinweis: Es ist ein rollstuhlgerechtes WC vorhanden.\nEs erfolgt keine medizinische Betreuung. | Öffnungszeiten: Mo - Fr: 11:00 - 18:00 Uhr",
        "category": "Öffentlicher \"Kühler Raum\"",
        "source": "Berlin"
      }
    },
    {
      "type": "Feature",
      "geometry": {
        "type": "Point",
        "coordinates": [
          13.326359,
          52.53192804
        ]
      },
      "properties": {
        "name": "Stadtschloss-Treff Moabit",
        "info": "Adresse: Rostocker Str. 32, 10553 Berlin | Rollstuhlgerecht: rollstuhlgerecht | Hinweis: Es ist ein rollstuhlgerechter Zugang vorhanden.\nEs ist ein rollstuhlgerechtes WC vorhanden.\nEs erfolgt keine medizinische Betreuung. | Öffnungszeiten: Mo - Fr: 12:00 - 18:00 Uhr",
        "category": "Öffentlicher \"Kühler Raum\"",
        "source": "Berlin"
      }
    },
    {
      "type": "Feature",
      "geometry": {
        "type": "Point",
        "coordinates": [
          13.396438,
          52.53723304
        ]
      },
      "properties": {
        "name": "Nachbarschaftszentrum Brunnentreff",
        "info": "Adresse: Brunnenstraße 145, 10115 Berlin-Mitte | Rollstuhlgerecht: eingeschränkt rollstuhlgerecht | Hinweis: Es ist ein rollstuhlgerechter Zugang vorhanden.\nEs ist kein rollstuhlgerechtes WC vorhanden.\nEs erfolgt keine medizinische Betreuung. | Öffnungszeiten: Mo: 10:00 - 19:00 Uhr; \nDi, Mi, Do: 10:00 - 17:00 Uhr",
        "category": "Öffentlicher \"Kühler Raum\"",
        "source": "Berlin"
      }
    },
    {
      "type": "Feature",
      "geometry": {
        "type": "Point",
        "coordinates": [
          13.392888,
          52.52811104
        ]
      },
      "properties": {
        "name": "Begegnungsstätte „Mehr Mitte“",
        "info": "Adresse: Torstraße 190, 10155 Berlin-Mitte | Rollstuhlgerecht: rollstuhlgerecht | Hinweis: Es ist ein rollstuhlgerechter Zugang vorhanden.\nEs ist ein rollstuhlgerechtes WC vorhanden.\nEs erfolgt keine medizinische Betreuung. | Öffnungszeiten: Mo - Fr: 09:30 – 17:00 Uhr",
        "category": "Öffentlicher \"Kühler Raum\"",
        "source": "Berlin"
      }
    },
    {
      "type": "Feature",
      "geometry": {
        "type": "Point",
        "coordinates": [
          13.346222,
          52.55409404
        ]
      },
      "properties": {
        "name": "Zukunftshaus Wedding",
        "info": "Adresse: Müllerstr. 56-58, 13349 Berlin | Rollstuhlgerecht: rollstuhlgerecht | Hinweis: Es gibt Trinkwasser, Sitzgelegenheiten, Toiletten, Unterhaltung/Spiele und W-LAN.\nEs erfolgt keine medizinische Betreuung. | Öffnungszeiten: Mi: 12:30 - 20:00 Uhr",
        "category": "Öffentlicher \"Kühler Raum\"",
        "source": "Berlin"
      }
    },
    {
      "type": "Feature",
      "geometry": {
        "type": "Point",
        "coordinates": [
          13.339764,
          52.52602204
        ]
      },
      "properties": {
        "name": "Heilandskirche - offene Kirche",
        "info": "Adresse: Thusneldaallee 1, 10551 Berlin | Rollstuhlgerecht: rollstuhlgerecht | Hinweis: Es gibt Trinkwasser, Sitzgelegenheiten und Toiletten. Die Kirche ist frei bestuhlbar. \nEs erfolgt keine medizinische Betreuung. | Öffnungszeiten: Mi: 13:00 - 18:00 Uhr",
        "category": "Öffentlicher \"Kühler Raum\"",
        "source": "Berlin"
      }
    },
    {
      "type": "Feature",
      "geometry": {
        "type": "Point",
        "coordinates": [
          13.349799,
          52.52483604
        ]
      },
      "properties": {
        "name": "St. Johannis - offene Kirche",
        "info": "Adresse: Alt-Moabit 23-25, 10559 Berlin | Rollstuhlgerecht: nicht rollstuhlgerecht | Hinweis: Es gibt Sitzgelegenheiten und Toiletten. \nEs erfolgt keine medizinische Betreuung. | Öffnungszeiten: Mo, Mi, Fr: 12:00 bis 15:00 Uhr",
        "category": "Öffentlicher \"Kühler Raum\"",
        "source": "Berlin"
      }
    },
    {
      "type": "Feature",
      "geometry": {
        "type": "Point",
        "coordinates": [
          13.409516,
          52.51355304
        ]
      },
      "properties": {
        "name": "Stadtteilzentrum KREATIVHAUS",
        "info": "Adresse: Fischerinsel 3, 10179 Berlin | Rollstuhlgerecht: rollstuhlgerecht | Hinweis: Es gibt Trinkwasser, Sitzgelegenheiten, Toiletten, Unterhaltung/Spiele und W-LAN.\nEs erfolgt keine medizinische Betreuung. | Öffnungszeiten: Mo - Fr: 09:00 – 18:00 Uhr",
        "category": "Öffentlicher \"Kühler Raum\"",
        "source": "Berlin"
      }
    },
    {
      "type": "Feature",
      "geometry": {
        "type": "Point",
        "coordinates": [
          13.468894,
          52.42977704
        ]
      },
      "properties": {
        "name": "Nachbarschaftstreff Waschhaus-Café",
        "info": "Adresse: Eugen-Bolz-Kehre 12, 12351 Berlin | Rollstuhlgerecht: rollstuhlgerecht | Hinweis: Es ist ein rollstuhlgerechtes WC vorhanden.\nEs erfolgt keine medizinische Betreuung. | Öffnungszeiten: Mo, Di, Do: 10:00 - 17:00 Uhr; \nMi, Fr: 10:00 - 15:00 Uhr",
        "category": "Öffentlicher \"Kühler Raum\"",
        "source": "Berlin"
      }
    },
    {
      "type": "Feature",
      "geometry": {
        "type": "Point",
        "coordinates": [
          13.432212,
          52.47849604
        ]
      },
      "properties": {
        "name": "Bürgerzentrum Neukölln",
        "info": "Adresse: Werbellinstraße 42, 12053 Berlin | Rollstuhlgerecht: rollstuhlgerecht | Hinweis: Es ist ein rollstuhlgerechtes WC vorhanden.\nEs erfolgt keine medizinische Betreuung. | Öffnungszeiten: Di, Mi: 09:00 - 15.00 Uhr; \nDo: 09:00 - 17:00 Uhr; \nFr: 09:00 - 14:00 Uhr",
        "category": "Öffentlicher \"Kühler Raum\"",
        "source": "Berlin"
      }
    },
    {
      "type": "Feature",
      "geometry": {
        "type": "Point",
        "coordinates": [
          13.441167,
          52.47119204
        ]
      },
      "properties": {
        "name": "Nachbarschaftshaus am Körnerpark",
        "info": "Adresse: Schierker Str. 53a, 12051 Berlin | Rollstuhlgerecht: rollstuhlgerecht | Hinweis: Es ist ein rollstuhlgerechtes WC vorhanden.\nEs erfolgt keine medizinische Betreuung. | Öffnungszeiten: Mo - Fr: 9:00 - 18:00 Uhr",
        "category": "Öffentlicher \"Kühler Raum\"",
        "source": "Berlin"
      }
    },
    {
      "type": "Feature",
      "geometry": {
        "type": "Point",
        "coordinates": [
          13.455759,
          52.42845604
        ]
      },
      "properties": {
        "name": "Quartiersmanagement Gropiusstadt Nord",
        "info": "Adresse: Martin-Luther-King-Weg 6, 12353 Berlin | Rollstuhlgerecht: rollstuhlgerecht | Hinweis: Es ist ein rollstuhlgerechtes WC vorhanden.\nEs erfolgt keine medizinische Betreuung. | Öffnungszeiten: Mo - Do: 09:00 - 16:00 Uhr",
        "category": "Öffentlicher \"Kühler Raum\"",
        "source": "Berlin"
      }
    },
    {
      "type": "Feature",
      "geometry": {
        "type": "Point",
        "coordinates": [
          13.49684,
          52.41670404
        ]
      },
      "properties": {
        "name": "Seniorenfreizeitstätte Alt-Rudow 60a",
        "info": "Adresse: Alt-Rudow 60a, 12355 Berlin | Rollstuhlgerecht: rollstuhlgerecht | Hinweis: Es ist ein rollstuhlgerechtes WC vorhanden.\nEs erfolgt keine medizinische Betreuung. | Öffnungszeiten: Mo - Do: 09:00 - 16:00 Uhr; \nFr: 09:00 - 12:00 Uhr",
        "category": "Öffentlicher \"Kühler Raum\"",
        "source": "Berlin"
      }
    },
    {
      "type": "Feature",
      "geometry": {
        "type": "Point",
        "coordinates": [
          13.462307,
          52.42523704
        ]
      },
      "properties": {
        "name": "Seniorenfreizeitstätte Gemeinschaftshaus Gropiusstadt",
        "info": "Adresse: Bat-Yam-Platz 1, 12353 Berlin | Rollstuhlgerecht: rollstuhlgerecht | Hinweis: Es ist ein rollstuhlgerechtes WC vorhanden.\nEs erfolgt keine medizinische Betreuung. | Öffnungszeiten: Mo: 10:00 - 14:00 Uhr; \nDi-Fr: 10:00 - 16:00 Uhr",
        "category": "Öffentlicher \"Kühler Raum\"",
        "source": "Berlin"
      }
    },
    {
      "type": "Feature",
      "geometry": {
        "type": "Point",
        "coordinates": [
          13.472858,
          52.46544104
        ]
      },
      "properties": {
        "name": "Stadtteilzentrum Köllnische Heide \"Mittendrin\"",
        "info": "Adresse: Sonnenallee 319, 12057 Berlin | Rollstuhlgerecht: eingeschränkt rollstuhlgerecht | Hinweis: Es ist kein rollstuhlgerechtes WC vorhanden.\nEs erfolgt keine medizinische Betreuung. | Öffnungszeiten: Mo: 13:00 - 16:00 Uhr;\nDi: 09:30 - 16:30 Uhr; \nMi: 09:30 - 18.00 Uhr; \nDo: 09:00 - 16:30 Uhr",
        "category": "Öffentlicher \"Kühler Raum\"",
        "source": "Berlin"
      }
    },
    {
      "type": "Feature",
      "geometry": {
        "type": "Point",
        "coordinates": [
          13.425172,
          52.47393504
        ]
      },
      "properties": {
        "name": "Tee- und Wärmestube Neukölln",
        "info": "Adresse: Weisestraße 34, 12049 Berlin | Rollstuhlgerecht: nicht rollstuhlgerecht | Hinweis: Es erfolgt keine medizinische Betreuung. | Öffnungszeiten: Mo, Mi, So:  15:00 - 19:00 Uhr; \nDi (Öffnungstag für Frauen): 10:00 - 15:00 Uhr; \nDo: 09:00 – 14:00 Uhr",
        "category": "Öffentlicher \"Kühler Raum\"",
        "source": "Berlin"
      }
    },
    {
      "type": "Feature",
      "geometry": {
        "type": "Point",
        "coordinates": [
          13.462066,
          52.42566804
        ]
      },
      "properties": {
        "name": "Gertrud-Junge-Bibliothek",
        "info": "Adresse: Bat-Yam-Platz 1, 12353 Berlin | Rollstuhlgerecht: rollstuhlgerecht | Hinweis: Es gibt einen rollstuhlgerechten Zugang zur Erwachsenen - und zur Jugendbibliothek.\nEs gibt kein rollstuhlgerechtes WC in der Erwachsenenbibliothek.\nEs gibt ein rollstuhlgerechtes WC in der Jugendbibliothek.\nEs erfolgt keine medizinische Betreuung. | Öffnungszeiten: Mo: 11:00 - 15:00 Uhr; \nDi - Do: 13:00 - 19:00 Uhr; \nFr: 11:00 - 15:00 Uhr",
        "category": "Öffentlicher \"Kühler Raum\"",
        "source": "Berlin"
      }
    },
    {
      "type": "Feature",
      "geometry": {
        "type": "Point",
        "coordinates": [
          13.451726,
          52.48064404
        ]
      },
      "properties": {
        "name": "Quartiersmanagement Harzer Straße",
        "info": "Adresse: Treptower Straße 23, 12059 Berlin | Rollstuhlgerecht: nicht rollstuhlgerecht | Hinweis: Es erfolgt keine medizinische Betreuung. | Öffnungszeiten: Mo - Do: 10:00 - 17:00 Uhr;\nFr: 10:00 - 14:00 Uhr",
        "category": "Öffentlicher \"Kühler Raum\"",
        "source": "Berlin"
      }
    },
    {
      "type": "Feature",
      "geometry": {
        "type": "Point",
        "coordinates": [
          13.436126,
          52.41808304
        ]
      },
      "properties": {
        "name": "Stadtteilzentrum Buckow",
        "info": "Adresse: Christoph-Ruden-Str. 9, 12349 Berlin | Rollstuhlgerecht: eingeschränkt rollstuhlgerecht | Hinweis: Ein rollstuhlgerechter Zugang ist vorhanden.\nEs ist kein rollstuhlgerechtes WC vorhanden.\nEs gibt WLAN und Beschäftigungsmöglichkeiten. Das Mitbringen von Haustieren ist erlaubt.\nEs erfolgt keine medizinische Betreuung. | Öffnungszeiten: Mo - Fr: 10:00 - 16:00 Uhr",
        "category": "Öffentlicher \"Kühler Raum\"",
        "source": "Berlin"
      }
    },
    {
      "type": "Feature",
      "geometry": {
        "type": "Point",
        "coordinates": [
          13.424949,
          52.49163904
        ]
      },
      "properties": {
        "name": "elele Nachbarschaftszentrum",
        "info": "Adresse: Hobrechtstraße 55, 12047 Berlin | Rollstuhlgerecht: nicht rollstuhlgerecht | Hinweis: Es gibt WLAN und Beschäftigungsmöglichkeiten (Spiele und Spielgeräte). Es erfolgt keine medizinische Betreuung. | Öffnungszeiten: Mo - Fr: 15:00 - 18:00 Uhr",
        "category": "Öffentlicher \"Kühler Raum\"",
        "source": "Berlin"
      }
    },
    {
      "type": "Feature",
      "geometry": {
        "type": "Point",
        "coordinates": [
          13.462569,
          52.42838804
        ]
      },
      "properties": {
        "name": "Frauen-Café Gropiusstadt",
        "info": "Adresse: Löwensteinring 22 A\n12353 Berlin | Rollstuhlgerecht: eingeschränkt rollstuhlgerecht | Hinweis: FLINTA Cafe (+Kinder): Es gibt WLAN, Spiele und Spielgeräte.\nDas Mitbringen von Hunden ist erlaubt.\nEin rollstuhlgerechter Zugang ist vorhanden.\nEs ist kein rollstuhlgerechtes WC vorhanden.\nDas aktuelle Tagesprogramm ist einsehbar auf der Website https://www.frauencafe-gropiusstadt.de/cafe-kalender\nEs erfolgt keine medizinische Betreuung. | Öffnungszeiten: Mo - Di: 10:00 -15:00 Uhr (je nach Raumbelegung)\nMi - Do: 10:00 -17:00 Uhr (je nach Raumbelegung)",
        "category": "Öffentlicher \"Kühler Raum\"",
        "source": "Berlin"
      }
    },
    {
      "type": "Feature",
      "geometry": {
        "type": "Point",
        "coordinates": [
          13.437826,
          52.44592904
        ]
      },
      "properties": {
        "name": "Museum Neukölln",
        "info": "Adresse: Alt-Britz 81, 12359 Berlin | Rollstuhlgerecht: rollstuhlgerecht | Hinweis: Es erfolgt keine medizinische Betreuung. | Öffnungszeiten: Mo - So: 10:00 - 18:00 Uhr",
        "category": "Öffentlicher \"Kühler Raum\"",
        "source": "Berlin"
      }
    },
    {
      "type": "Feature",
      "geometry": {
        "type": "Point",
        "coordinates": [
          13.475718,
          52.42323804
        ]
      },
      "properties": {
        "name": "Kreisler",
        "info": "Adresse: Joachim-Gottschalk-Weg 21, 12353 Berlin | Rollstuhlgerecht: eingeschränkt rollstuhlgerecht | Hinweis: Ein rollstuhlgerechter Zugang ist vorhanden.\nEs ist kein rollstuhlgerechtes WC vorhanden.\nDie Mitnahme von Haustieren ist erlaubt.\nEs erfolgt keine medizinische Betreuung. | Öffnungszeiten: Mi - Fr: 14:00 - 19:00 Uhr\nSa: 11:00 - 16:00 Uhr",
        "category": "Öffentlicher \"Kühler Raum\"",
        "source": "Berlin"
      }
    },
    {
      "type": "Feature",
      "geometry": {
        "type": "Point",
        "coordinates": [
          13.431306,
          52.48985204
        ]
      },
      "properties": {
        "name": "Evangelische Kirchengemeinde *Nikodemus - Kulturkirche* im Reuterkiez",
        "info": "Adresse: Nansenstraße 12, 12047 Berlin | Rollstuhlgerecht: nicht rollstuhlgerecht | Hinweis: Es gibt Spiele und Spielgeräte, WLAN sowie ein Café mit Snacks und Getränken.\nDie Mitnahme von Hunden ist erlaubt.\nEs erfolgt keine medizinische Betreuung. | Öffnungszeiten: Di-Fr: 12:00 - 17:00 Uhr",
        "category": "Öffentlicher \"Kühler Raum\"",
        "source": "Berlin"
      }
    },
    {
      "type": "Feature",
      "geometry": {
        "type": "Point",
        "coordinates": [
          13.402238,
          52.56900504
        ]
      },
      "properties": {
        "name": "Rathaus Pankow",
        "info": "Adresse: Breite Str. 24a-26, 13187 Berlin | Rollstuhlgerecht: rollstuhlgerecht | Hinweis: Es ist ein rollstuhlgerechter Zugang mittels Fahrstuhl über den Seiten- und Nebeneingang möglich.\nEs ist mindestens ein rollstuhlgerechtes WC und Trinkwasserzugang vorhanden.\nEs erfolgt keine medizinische Betreuung. | Öffnungszeiten: Mo - Fr: 06:00 - 19:00 Uhr",
        "category": "Öffentlicher \"Kühler Raum\"",
        "source": "Berlin"
      }
    },
    {
      "type": "Feature",
      "geometry": {
        "type": "Point",
        "coordinates": [
          13.467864,
          52.56053704
        ]
      },
      "properties": {
        "name": "Rathaus Weißensee",
        "info": "Adresse: Berliner Allee 252-260, 13088 Berlin | Rollstuhlgerecht: rollstuhlgerecht | Hinweis: Es gibt einen rollstuhlgerechten ebenerdigen Zugang zum Gebäude über einen Nebeneingang.\nEs ist ein Fahrstuhl innerhalb des Gebäudes vorhanden.\nEs ist mindestens ein rollstuhlgerechtes WC und Trinkwasserzugang vorhanden.\nEs erfolgt keine medizinische Betreuung. | Öffnungszeiten: Mo - Fr: 06:00 - 19:00 Uhr",
        "category": "Öffentlicher \"Kühler Raum\"",
        "source": "Berlin"
      }
    },
    {
      "type": "Feature",
      "geometry": {
        "type": "Point",
        "coordinates": [
          13.427298,
          52.54209504
        ]
      },
      "properties": {
        "name": "Campus Fröbelstraße",
        "info": "Adresse: Fröbelstr. 17 Haus 6, 10405 Berlin | Rollstuhlgerecht: rollstuhlgerecht | Hinweis: Es ist ein rollstuhgerechter Zugang mittels Fahrstuhl über den Nebeneingang zum Haus 6 möglich.\nEs ist ein rollstuhlgerechtes WC und Trinkwasserzugang vorhanden.\nEs erfolgt keine medizinische Betreuung. | Öffnungszeiten: Mo - Fr: 06:00 - 19:00 Uhr",
        "category": "Öffentlicher \"Kühler Raum\"",
        "source": "Berlin"
      }
    },
    {
      "type": "Feature",
      "geometry": {
        "type": "Point",
        "coordinates": [
          13.493983,
          52.63563704
        ]
      },
      "properties": {
        "name": "Stadtteilbibliothek Buch",
        "info": "Adresse: Wiltbergstraße 19-23, 13125 Berlin | Rollstuhlgerecht: rollstuhlgerecht | Hinweis: Es gibt einen rollstuhlgerechten Zugang mittels Fahrstuhl bzw. einen ebenerdigen Zugang über das Parkdeck.\nEs ist ein rollstuhlgerechtes WC und Trinkwasserzugang vorhanden. \nDie Bibliothek ist klimatisiert. \nEs erfolgt keine medizinische Betreuung. | Öffnungszeiten: Mo, Do, Fr: 13:00 - 19:00 Uhr; \nDi: 10:00 - 16:00 Uhr; \nMi: 13:00 - 17:00 Uhr; \nSa: 10:00 - 15:00 Uhr",
        "category": "Öffentlicher \"Kühler Raum\"",
        "source": "Berlin"
      }
    },
    {
      "type": "Feature",
      "geometry": {
        "type": "Point",
        "coordinates": [
          13.452696,
          52.54820804
        ]
      },
      "properties": {
        "name": "Familienzentrum Weißensee",
        "info": "Adresse: Mahlerstr. 4, 13088 Berlin | Rollstuhlgerecht: rollstuhlgerecht | Hinweis: Das Familienzentrum ist rollstuhlgerecht zugänglich. \nEs ist ein Fahrstuhl vorhanden, um alle Bereiche zu erreichen. \nEin Trinkwasserzugang ist vorhanden.\nEs erfolgt keine medizinische Betreuung. | Öffnungszeiten: Mo, Di, Mi, Do: 10:00 - 17:30 Uhr, \nFr: 10:00 - 16:30 Uhr",
        "category": "Öffentlicher \"Kühler Raum\"",
        "source": "Berlin"
      }
    },
    {
      "type": "Feature",
      "geometry": {
        "type": "Point",
        "coordinates": [
          13.407645,
          52.53120204
        ]
      },
      "properties": {
        "name": "Stadtteilzentrum Prenzlauer Berg",
        "info": "Adresse: Fehrbelliner Str. 92, 10119 Berlin | Rollstuhlgerecht: eingeschränkt rollstuhlgerecht | Hinweis: Der Zugang ist barrierefrei in Hochparterre (1. Stock) durch einen Aufzug im Hof möglich. Die Türen dorthin können alle mit einem Türöffner geöffnet werden. Es ist ein barrierefreies WC sowie ein Wickeltisch vorhanden. Es gibt Trinkwasser, Sitzgelegenheiten, Toiletten, Unterhaltung/Spiele und W-LAN. Die Mitarbeiter*innen können auch vor Ort zur Unterstützung angefragt werden (Tel.: 030-44383 - 713).\nEs erfolgt keine medizinische Betreuung. | Öffnungszeiten: Mo - Do: 09:00 - 18:00 Uhr;\nFr: 09:00 - 15:00 Uhr",
        "category": "Öffentlicher \"Kühler Raum\"",
        "source": "Berlin"
      }
    },
    {
      "type": "Feature",
      "geometry": {
        "type": "Point",
        "coordinates": [
          13.314196,
          52.56754304
        ]
      },
      "properties": {
        "name": "Büro für Bürgerbeteiligung",
        "info": "Adresse: Scharnweberstraße 55a, 13405 Berlin | Rollstuhlgerecht: eingeschränkt rollstuhlgerecht | Hinweis: Es ist kein rollstuhlgerechtes WC vorhanden.\nEs erfolgt keine medizinische Betreuung. | Öffnungszeiten: Di: 10:00 - 18:00 Uhr; \nMi, Do: 10:00 - 17:00 Uhr",
        "category": "Öffentlicher \"Kühler Raum\"",
        "source": "Berlin"
      }
    },
    {
      "type": "Feature",
      "geometry": {
        "type": "Point",
        "coordinates": [
          13.353569,
          52.59613704
        ]
      },
      "properties": {
        "name": "FACE Familienzentrum",
        "info": "Adresse: Wilhelmsruher Damm 159, 13439 Berlin | Rollstuhlgerecht: rollstuhlgerecht | Hinweis: Es erfolgt keine medizinische Betreuung. | Öffnungszeiten: Mo, Mi, Fr: 08:00 - 16:00 Uhr; \nDi, Do: 10:00 - 18:00 Uhr",
        "category": "Öffentlicher \"Kühler Raum\"",
        "source": "Berlin"
      }
    },
    {
      "type": "Feature",
      "geometry": {
        "type": "Point",
        "coordinates": [
          13.352208,
          52.60521704
        ]
      },
      "properties": {
        "name": "Stadtteilzentrum Ribbeck-Haus",
        "info": "Adresse: Senftenberger Ring 54, 13435 Berlin | Rollstuhlgerecht: rollstuhlgerecht | Hinweis: Es erfolgt keine medizinische Betreuung. | Öffnungszeiten: Mo, Mi, Fr: 09:00 - 16:00 Uhr;\nDi, Do: 10:00 - 18:00 Uhr",
        "category": "Öffentlicher \"Kühler Raum\"",
        "source": "Berlin"
      }
    },
    {
      "type": "Feature",
      "geometry": {
        "type": "Point",
        "coordinates": [
          13.298772,
          52.57415704
        ]
      },
      "properties": {
        "name": "Tek Dream Event - Flohr Saal",
        "info": "Adresse: Flohrstr. 19, 13507 Berlin | Rollstuhlgerecht: rollstuhlgerecht | Hinweis: Der Raum ist klimatisiert. \nEs erfolgt keine medizinische Betreuung. | Öffnungszeiten: Mo - Fr: 12:00 - 17:00 Uhr; \nSa, So: 12:00 - 16:30 Uhr",
        "category": "Öffentlicher \"Kühler Raum\"",
        "source": "Berlin"
      }
    },
    {
      "type": "Feature",
      "geometry": {
        "type": "Point",
        "coordinates": [
          13.379365,
          52.57041804
        ]
      },
      "properties": {
        "name": "Begegnungszentrum der Träger gGmbH",
        "info": "Adresse: Provinzstraße 84, 13409 Berlin | Rollstuhlgerecht: eingeschränkt rollstuhlgerecht | Hinweis: Es ist kein rollstuhlgerechtes WC vorhanden.\nEs erfolgt keine medizinische Betreuung. | Öffnungszeiten: Mo - So: 10:00 - 17:00 Uhr",
        "category": "Öffentlicher \"Kühler Raum\"",
        "source": "Berlin"
      }
    },
    {
      "type": "Feature",
      "geometry": {
        "type": "Point",
        "coordinates": [
          13.336755,
          52.58236904
        ]
      },
      "properties": {
        "name": "Interkulturelles Zentrum BKK Linde",
        "info": "Adresse: Wilhelm-Gericke-Str. 42, 13437 Berlin | Rollstuhlgerecht: eingeschränkt rollstuhlgerecht | Hinweis: Es ist kein rollstuhlgerechtes WC vorhanden.\nEs erfolgt keine medizinische Betreuung. | Öffnungszeiten: Mo, Mi, Do, Fr: 10:00 – 19:00 Uhr",
        "category": "Öffentlicher \"Kühler Raum\"",
        "source": "Berlin"
      }
    },
    {
      "type": "Feature",
      "geometry": {
        "type": "Point",
        "coordinates": [
          13.293367,
          52.58927904
        ]
      },
      "properties": {
        "name": "Immanuel Stadtteilzentrum Borsigwalde",
        "info": "Adresse: Ziekowstraße 112/114, 13509 Berlin | Rollstuhlgerecht: rollstuhlgerecht | Hinweis: Es gibt Trinkwasser, Sitzgelegenheiten, Toiletten, Unterhaltung/Spiele. Da die Öffnungszeiten  variieren können bitten wir Sie, uns vorab kurz telefonisch zu kontaktieren.\nEs erfolgt keine medizinische Betreuung. | Öffnungszeiten: Mo - Do: 09:00 - 17:00 Uhr;\nFr: 09:00 - 12:00 Uhr",
        "category": "Öffentlicher \"Kühler Raum\"",
        "source": "Berlin"
      }
    },
    {
      "type": "Feature",
      "geometry": {
        "type": "Point",
        "coordinates": [
          13.344036,
          52.61387904
        ]
      },
      "properties": {
        "name": "Seniorenfreizeitstätte Lübars",
        "info": "Adresse: Am Vierrutenberg 2, 13469 Berlin | Rollstuhlgerecht: rollstuhlgerecht | Hinweis: Es gibt Sitzgelegeneheiten, Trinkwasser, Toiletten, Unterhaltung, Spiele und WLAN.\nEs erfolgt keine medizinische Betreuung. | Öffnungszeiten: Mo - Fr: 08.00 - 16.00 Uhr",
        "category": "Öffentlicher \"Kühler Raum\"",
        "source": "Berlin"
      }
    },
    {
      "type": "Feature",
      "geometry": {
        "type": "Point",
        "coordinates": [
          13.275687,
          52.59328704
        ]
      },
      "properties": {
        "name": "Seniorenfreizietstätte \"Adele\"",
        "info": "Adresse: Adelheidallee 5-7 13507 Berlin | Rollstuhlgerecht: rollstuhlgerecht | Hinweis: Es gibt Sitzgelegenheiten, Trinkwasser und Toiletten. Eine Liegemöglichkeit ist vorhanden.\nEs erfolgt keine medizinische Betreuung. | Öffnungszeiten: Mo - Fr: 10:00 - 17:00 Uhr",
        "category": "Öffentlicher \"Kühler Raum\"",
        "source": "Berlin"
      }
    },
    {
      "type": "Feature",
      "geometry": {
        "type": "Point",
        "coordinates": [
          13.213423,
          52.60843504
        ]
      },
      "properties": {
        "name": "Seniorenfreizeitstätte Heiligensee",
        "info": "Adresse: Alt-Heiligensee 39, 13503 Berlin | Rollstuhlgerecht: rollstuhlgerecht | Hinweis: Es gibt Toiletten, Sitzgelegenheiten, W-LAN und Spiele.\nEs erfolgt keine medizinische Betreuung. | Öffnungszeiten: Mo - Di: 13:00 - 16:30 Uhr;\nDo - Fr: 12:30 - 16:30 Uhr",
        "category": "Öffentlicher \"Kühler Raum\"",
        "source": "Berlin"
      }
    },
    {
      "type": "Feature",
      "geometry": {
        "type": "Point",
        "coordinates": [
          13.276705,
          52.58749904
        ]
      },
      "properties": {
        "name": "Seniorenfreizeitstätte - Freizeitclub Tegel",
        "info": "Adresse: Alt-Tegel 43, 13507 Berlin | Rollstuhlgerecht: rollstuhlgerecht | Hinweis: Es gibt Sitzgelegenheit und Toiletten.\nEs erfolgt keine medizinische Betreuung. | Öffnungszeiten: Mo: 12:00 - 16:30 Uhr;\nDo: 11:00 - 16:30 Uhr;\nFr: 11:00 - 16:30 Uhr",
        "category": "Öffentlicher \"Kühler Raum\"",
        "source": "Berlin"
      }
    },
    {
      "type": "Feature",
      "geometry": {
        "type": "Point",
        "coordinates": [
          13.313062,
          52.62024204
        ]
      },
      "properties": {
        "name": "Hermsdorfer Seniorenfüchse",
        "info": "Adresse: Berliner Str. 105-107, 13467 Berlin | Rollstuhlgerecht: rollstuhlgerecht | Hinweis: Es gibt Sitzgelegenheit und Toiletten.\nEs erfolgt keine medizinische Betreuung. | Öffnungszeiten: Mo – Fr: 10:00 – 16:30 Uhr;\nDo: 10:00 - 17:30 Uhr",
        "category": "Öffentlicher \"Kühler Raum\"",
        "source": "Berlin"
      }
    },
    {
      "type": "Feature",
      "geometry": {
        "type": "Point",
        "coordinates": [
          13.363386,
          52.60306604
        ]
      },
      "properties": {
        "name": "Märkischer Seniorentreff",
        "info": "Adresse: Senftenberger Ring 34a, 13435 Berlin | Rollstuhlgerecht: rollstuhlgerecht | Hinweis: Es gibt Sitzgelegenheit und Toiletten.\nEs erfolgt keine medizinische Betreuung. | Öffnungszeiten: Mo - Fr:  08:30 - 17:00 Uhr",
        "category": "Öffentlicher \"Kühler Raum\"",
        "source": "Berlin"
      }
    },
    {
      "type": "Feature",
      "geometry": {
        "type": "Point",
        "coordinates": [
          13.360813,
          52.56629204
        ]
      },
      "properties": {
        "name": "Seniorenfreizeitstätte Am Schäfersee",
        "info": "Adresse: Stargardtstr. 3, 13407 Berlin | Rollstuhlgerecht: rollstuhlgerecht | Hinweis: Es gibt Sitzgelegenheit und Toiletten.\nEs erfolgt keine medizinische Betreuung. | Öffnungszeiten: Mo - Fr: 10:00 - 17:00 Uhr",
        "category": "Öffentlicher \"Kühler Raum\"",
        "source": "Berlin"
      }
    },
    {
      "type": "Feature",
      "geometry": {
        "type": "Point",
        "coordinates": [
          13.318915,
          52.60643704
        ]
      },
      "properties": {
        "name": "Tageszentrum Waidmannslust",
        "info": "Adresse: Waidmannsluster Damm 174, 13469 Berlin | Rollstuhlgerecht: eingeschränkt rollstuhlgerecht | Hinweis: Es gibt Trinkwasser, Sitzgelegenheiten, Toiletten und Unterhaltungsangebote/Spiele.\nEs erfolgt keine medizinische Betreuung. | Öffnungszeiten: Mo - Do: 10:00 - 16:00 Uhr\nFr: 10:00 - 15:00 Uhr",
        "category": "Öffentlicher \"Kühler Raum\"",
        "source": "Berlin"
      }
    },
    {
      "type": "Feature",
      "geometry": {
        "type": "Point",
        "coordinates": [
          13.324952,
          52.58951004
        ]
      },
      "properties": {
        "name": "Rathaus Reinickendorf - Haupthalle (Foyer)",
        "info": "Adresse: Eichborndamm 215, 13437 Berlin | Rollstuhlgerecht: Rollstuhlgerecht | Hinweis: Es gibt Trinkwasser, Sitzgelegenheiten und Toiletten.\nEs erfolgt keine medizinische Betreuung. | Öffnungszeiten: Mo - Fr: 06:00 - 20:00 Uhr",
        "category": "Öffentlicher \"Kühler Raum\"",
        "source": "Berlin"
      }
    },
    {
      "type": "Feature",
      "geometry": {
        "type": "Point",
        "coordinates": [
          13.291996,
          52.63398404
        ]
      },
      "properties": {
        "name": "Johanneskirche",
        "info": "Adresse: Zeltinger Platz 18, 13465 Berlin | Rollstuhlgerecht: Rollstuhlgerecht | Hinweis: Es gibt Sitzgelegenheiten.\nEs erfolgt keine medizinische Betreuung. | Öffnungszeiten: Mo - So: 10:00-18:00 Uhr \n(nicht während Veranstaltungen)",
        "category": "Öffentlicher \"Kühler Raum\"",
        "source": "Berlin"
      }
    },
    {
      "type": "Feature",
      "geometry": {
        "type": "Point",
        "coordinates": [
          13.248884,
          52.61016404
        ]
      },
      "properties": {
        "name": "Raum der Stille im Diakoniezentrum Heiligensee",
        "info": "Adresse: Keilerstr. 19, 13503 Berlin | Rollstuhlgerecht: Rollstuhlgerecht | Hinweis: Es gibt Trinkwasser, Sitzgelegenheiten, Toiletten und Unterhaltungsangebote/Spiele.\nEs erfolgt keine medizinische Betreuung. | Öffnungszeiten: Mo - So: 08:00 - 21:00 Uhr",
        "category": "Öffentlicher \"Kühler Raum\"",
        "source": "Berlin"
      }
    },
    {
      "type": "Feature",
      "geometry": {
        "type": "Point",
        "coordinates": [
          13.352308,
          52.59608804
        ]
      },
      "properties": {
        "name": "Ev. Apostel-Petrus-Kirchengemeinde",
        "info": "Adresse: Wilhelmsruher Damm 161, 13439 Berlin | Rollstuhlgerecht: eingeschränkt rollstuhlgerecht | Hinweis: Es gibt Trinkwasser, Sitzgelegenheiten und Toiletten. Ein Aufzug ist vorhanden und wird von den Mitarbeitenen bedient.\nEs erfolgt keine medizinische Betreuung. | Öffnungszeiten: Mo-Fr: 9:00-15:00 Uhr",
        "category": "Öffentlicher \"Kühler Raum\"",
        "source": "Berlin"
      }
    },
    {
      "type": "Feature",
      "geometry": {
        "type": "Point",
        "coordinates": [
          13.226512,
          52.58158504
        ]
      },
      "properties": {
        "name": "Jesus-Christus-Kirche",
        "info": "Adresse: Schwarzspechtweg 1-3, 13505 Berlin | Rollstuhlgerecht: eingeschränkt rollstuhlgerecht | Hinweis: Es gibt Trinkwasser, Sitzgelegenheiten und Toiletten.\nEs erfolgt keine medizinische Betreuung. | Öffnungszeiten: Fr, Sa: 12:00 - 18:00 Uhr;\nSo: 10:00 - 18:00 Uhr",
        "category": "Öffentlicher \"Kühler Raum\"",
        "source": "Berlin"
      }
    },
    {
      "type": "Feature",
      "geometry": {
        "type": "Point",
        "coordinates": [
          13.323507,
          52.57025004
        ]
      },
      "properties": {
        "name": "Segenskirche",
        "info": "Adresse: Auguste-Viktoria-Allee 16F, 13403 Berlin | Rollstuhlgerecht: eingeschränkt rollstuhlgerecht | Hinweis: Es gibt Sitzgelegenheiten.\nEine Rampe steht zur Verfügung. Die Nutzung ist möglich, sofern entsprechendes Personal vor Ort ist.\nEs erfolgt keine medizinische Betreuung. | Öffnungszeiten: Mo: 15:00 - 17:00 Uhr;\nDo: 16:00 - 18:00 Uhr",
        "category": "Öffentlicher \"Kühler Raum\"",
        "source": "Berlin"
      }
    },
    {
      "type": "Feature",
      "geometry": {
        "type": "Point",
        "coordinates": [
          13.272686,
          52.54183304
        ]
      },
      "properties": {
        "name": "Christophoruskirche",
        "info": "Adresse: Schuckertdamm 336 - 340, 13629 Berlin | Rollstuhlgerecht: rollstuhlgerecht | Hinweis: Es erfolgt keine medizinische Betreuung. | Öffnungszeiten: Offene Sommerkirche\n1. Sonntag im Monat, 16:00 - 18:00 Uhr, 17:00 Uhr - 30 Minuten Konzert (Termine: 05.07., 02.08.)\noffene Kirche jeden Donnerstag von 16:00  -18:00 Uhr vom 07.05. bis 10.09. (ohne Programm mit Kirchwächter:innen)",
        "category": "Öffentlicher \"Kühler Raum\"",
        "source": "Berlin"
      }
    },
    {
      "type": "Feature",
      "geometry": {
        "type": "Point",
        "coordinates": [
          13.140221,
          52.53088304
        ]
      },
      "properties": {
        "name": "Dorfkirche Alt-Staaken",
        "info": "Adresse: Nennhauser Damm 72, 13591 Berlin | Rollstuhlgerecht: rollstuhlgerecht | Hinweis: Es ist ein rollstuhlgerechter Zugang vorhanden.\nEs ist keine Toilette vorhanden.\nEs erfolgt keine medizinische Betreuung. | Öffnungszeiten: Von April bis September an ausgewählten Samstagen und Sonntagen geöffnet:\n20.06.: 10:00 - 16:00 Uhr \n04.07.: 10:00 - 16:00 Uhr \n18.07.: 10:00 - 16:00 Uhr \n01.08.: 10:00 - 15:00 Uhr \n29.08.: 10:00 - 15:00 Uhr \n12.09.: 10:00 - 15:00 Uhr \n26.09.: 10:00 - 15:00 Uhr",
        "category": "Öffentlicher \"Kühler Raum\"",
        "source": "Berlin"
      }
    },
    {
      "type": "Feature",
      "geometry": {
        "type": "Point",
        "coordinates": [
          13.144479,
          52.45415204
        ]
      },
      "properties": {
        "name": "Dorfkirche Kladow",
        "info": "Adresse: Kladower Damm 369, 14089 Berlin | Rollstuhlgerecht: rollstuhlgerecht | Hinweis: Im Gemeindehaus in der Nähe (Kladower Damm 369, 14089 Berlin) ist ein Plattformlift vorhanden.\nEs erfolgt keine medizinische Betreuung. | Öffnungszeiten: Mo - So: 08:00 - 18:00 Uhr",
        "category": "Öffentlicher \"Kühler Raum\"",
        "source": "Berlin"
      }
    },
    {
      "type": "Feature",
      "geometry": {
        "type": "Point",
        "coordinates": [
          13.188953,
          52.52122404
        ]
      },
      "properties": {
        "name": "Melanchthon-Kirche",
        "info": "Adresse: Melanchthonplatz 1, 13595 Berlin | Rollstuhlgerecht: nicht rollstuhlgerecht | Hinweis: Es erfolgt keine medizinische Betreuung. | Öffnungszeiten: Di: 16:30 - 18:30 Uhr",
        "category": "Öffentlicher \"Kühler Raum\"",
        "source": "Berlin"
      }
    },
    {
      "type": "Feature",
      "geometry": {
        "type": "Point",
        "coordinates": [
          13.157625,
          52.54925004
        ]
      },
      "properties": {
        "name": "Paul-Gerhardt-Gemeindezentrum mit Café",
        "info": "Adresse: Im Spektefeld 26, 13589 Berlin | Rollstuhlgerecht: rollstuhlgerecht | Hinweis: Es erfolgt keine medizinische Betreuung. | Öffnungszeiten: Mo: 10:00 - 18:00 Uhr; \nDi - Do: 10:00 - 20:00 Uhr; \nFr: 13:00 - 16:00 Uhr",
        "category": "Öffentlicher \"Kühler Raum\"",
        "source": "Berlin"
      }
    },
    {
      "type": "Feature",
      "geometry": {
        "type": "Point",
        "coordinates": [
          13.204889,
          52.53842504
        ]
      },
      "properties": {
        "name": "St. Nikolai-Kirche",
        "info": "Adresse: Reformationsplatz 1, 13597 Berlin | Rollstuhlgerecht: eingeschränkt rollstuhlgerecht | Hinweis: Es ist ein rollstuhlgerechter Zugang vorhanden.\nDie Toiletten sind nicht rollstuhlgerecht zugänglich.\nEs erfolgt keine medizinische Betreuung. | Öffnungszeiten: Mo - Sa: 12:00 -14:00 Uhr; \nSo: Nach dem Gottesdienst bis 14:00 Uhr\n\nAn besonders heißen Tagen erfolgt nach Möglichkeit eine verlängerte Öffnung der St. Nikolai-Kirche. Aktuelle Informationen hierzu werden über die Website sowie den Social-Media-Kanal der Kirchengemeinde bereitgestellt. Interessierte Bürgerinnen und Bürger, die sich an der Umsetzung des Angebotes beteiligen möchten, finden auf der Seite St. Nikolai als Hitzeschutzraum ergänzende Informationen.",
        "category": "Öffentlicher \"Kühler Raum\"",
        "source": "Berlin"
      }
    },
    {
      "type": "Feature",
      "geometry": {
        "type": "Point",
        "coordinates": [
          13.12796,
          52.46493104
        ]
      },
      "properties": {
        "name": "Schilfdachkapelle",
        "info": "Adresse: Gottfried-Arnold-Weg 10, 14089 Berlin | Rollstuhlgerecht: nicht rollstuhlgerecht | Hinweis: Es erfolgt keine medizinische Betreuung. | Öffnungszeiten: Mo - Fr: 08:00 Uhr bis Sonnenuntergang (mind. 18:00 Uhr)",
        "category": "Öffentlicher \"Kühler Raum\"",
        "source": "Berlin"
      }
    },
    {
      "type": "Feature",
      "geometry": {
        "type": "Point",
        "coordinates": [
          13.196639,
          52.57055404
        ]
      },
      "properties": {
        "name": "Stiftskirche im Johannesstift",
        "info": "Adresse: Schönwalder Allee 26, 13587 Berlin | Rollstuhlgerecht: rollstuhlgerecht | Hinweis: Es erfolgt keine medizinische Betreuung. | Öffnungszeiten: So: 13:00 - 17:00 Uhr",
        "category": "Öffentlicher \"Kühler Raum\"",
        "source": "Berlin"
      }
    },
    {
      "type": "Feature",
      "geometry": {
        "type": "Point",
        "coordinates": [
          13.206163,
          52.56762404
        ]
      },
      "properties": {
        "name": "Wichernkirche",
        "info": "Adresse: Wichernstraße 21, 13587 Berlin | Rollstuhlgerecht: rollstuhlgerecht | Hinweis: Es ist ein rollstuhlgerechter Zugang vorhanden.\nEs ist ein rollstuhlgerechtes WC im Gemeindehaus nebenan vorhanden.\nEs erfolgt keine medizinische Betreuung. | Öffnungszeiten: Mo - So: 08:00 - 18:00 Uhr",
        "category": "Öffentlicher \"Kühler Raum\"",
        "source": "Berlin"
      }
    },
    {
      "type": "Feature",
      "geometry": {
        "type": "Point",
        "coordinates": [
          13.152804,
          52.55400304
        ]
      },
      "properties": {
        "name": "Quartiersmanagement Falkenhagener Feld West - Kiezstube",
        "info": "Adresse: Kraepelinweg 1, 13589 Berlin | Rollstuhlgerecht: eingeschränkt rollstuhlgerecht | Hinweis: Der Zugang ist eingeschränkt rollstuhlgerecht (ebenerdig, jedoch ohne elektrische Türen). \nEs ist kein rollstuhlgerechtes WC vorhanden.\nEin Zugang zu kostenlosem Trinkwasser ist vorhanden.\nEine Erste-Hilfe-Kasten ist vorhanden.\nEine Büchertauschregal ist vorhanden.\nDas Mitbringen von Haustieren ist gestattet.\nEs erfolgt keine medizinische Betreuung. | Öffnungszeiten: Mo, Mi, Do: 11:00 – 15:00 Uhr\nBitte beachten Sie, dass es aufgrund terminlicher Verpflichtungen der Mitarbeitenden des Quartiersmanagements zu Abweichungen von den genannten Öffnungszeiten kommen kann. Ziel ist es jedoch, die angegebenen Zeitfenster möglichst verlässlich abzudecken und – sofern die personellen Ressourcen es zulassen – auch zusätzliche Öffnungszeiten anzubieten.",
        "category": "Öffentlicher \"Kühler Raum\"",
        "source": "Berlin"
      }
    },
    {
      "type": "Feature",
      "geometry": {
        "type": "Point",
        "coordinates": [
          13.203647,
          52.54873804
        ]
      },
      "properties": {
        "name": "Quartiersmanagement Spandauer Neustadt",
        "info": "Adresse: Lynarstraße 13, 13585 Berlin | Rollstuhlgerecht: eingeschränkt rollstuhlgerecht | Hinweis: Es sind Türschwellen vorhanden und eher schmale Türen und Durchgänge.\nEs ist kein rollstuhlgerechtes WC vorhanden.\nEin Zugang zu kostenlosem Trinkwasser und Toiletten ist vorhanden. \nEs ist ein Erste-Hilfe-Kasten vorhanden.\nEs ist ein Büchertauschregal vorhanden.\nDas Mitbringen von Haustieren ist gestattet.\nEs erfolgt keine medizinische Betreuung. | Öffnungszeiten: Di: 10:00 - 13:00 Uhr\nDo: 14:00 - 17:00 Uhr",
        "category": "Öffentlicher \"Kühler Raum\"",
        "source": "Berlin"
      }
    },
    {
      "type": "Feature",
      "geometry": {
        "type": "Point",
        "coordinates": [
          13.202831,
          52.54690904
        ]
      },
      "properties": {
        "name": "Stadtteilzentrum Paul-Schneider-Haus",
        "info": "Adresse: Schönwalder Straße 23, 13585 Berlin | Rollstuhlgerecht: eingeschränkt rollstuhlgerecht | Hinweis: Es gibt Trinkwasser, Sitzgelegenheiten und Toiletten. \nBarrierefreiheit: Die Türen und Durchgänge sind mindestens 90 cm breit, eine Rampe ist vorhanden, jedoch keine Parkplätze. \nEs erfolgt keine medizinische Betreuung. | Öffnungszeiten: Mo – So: 11:00 - 15:00 Uhr",
        "category": "Öffentlicher \"Kühler Raum\"",
        "source": "Berlin"
      }
    },
    {
      "type": "Feature",
      "geometry": {
        "type": "Point",
        "coordinates": [
          13.208736,
          52.56177104
        ]
      },
      "properties": {
        "name": "LVM Service-Büro Michael Klages",
        "info": "Adresse: Streitstr. 28, 13587 Berlin | Rollstuhlgerecht: nicht rollstuhlgerecht | Hinweis: Es gibt Trinkwasser, Sitzgelegenheiten und Toiletten. Der Raum ist klimatisiert.\nEs erfolgt keine medizinische Betreuung. | Öffnungszeiten: Mo: 10:00 - 18:00 Uhr;\nDi, Mi: 10:00 - 15:00 Uhr;\nDo: 10:00 - 17:00 Uhr;\nFr: 10:00 - 15:00 Uhr",
        "category": "Öffentlicher \"Kühler Raum\"",
        "source": "Berlin"
      }
    },
    {
      "type": "Feature",
      "geometry": {
        "type": "Point",
        "coordinates": [
          13.346383,
          52.43544404
        ]
      },
      "properties": {
        "name": "Ev. Dreifaltigkeitskirche Lankwitz",
        "info": "Adresse: Gallwitzallee 4-6, 12249 Berlin | Rollstuhlgerecht: rollstuhlgerecht | Hinweis: Eine Toilette und der Zugang zu Trinkwasser sind vorhanden.\nEs erfolgt keine medizinische Betreuung. | Öffnungszeiten: An Tagen mit Hitzewarnstufe: von 14:00 - 18:00 Uhr",
        "category": "Öffentlicher \"Kühler Raum\"",
        "source": "Berlin"
      }
    },
    {
      "type": "Feature",
      "geometry": {
        "type": "Point",
        "coordinates": [
          13.203427,
          52.43445204
        ]
      },
      "properties": {
        "name": "Johanneskirche Schlachtensee",
        "info": "Adresse: Matterhornstr. 37/39, 14129 | Rollstuhlgerecht: rollstuhlgerecht | Hinweis: Eine Toilette und der Zugang zu Trinkwasser sind vorhanden.\nEs erfolgt keine medizinische Betreuung. | Öffnungszeiten: Juni, September: Mo, Mi: 9:00 - 13:00; Do: 17:00 - 19:00 Uhr; Fr: 10:00 - 12:00 Uhr; \nJuli, August: Mo-Fr: 10:00 - 18:00 Uhr (bei Hitze)",
        "category": "Öffentlicher \"Kühler Raum\"",
        "source": "Berlin"
      }
    },
    {
      "type": "Feature",
      "geometry": {
        "type": "Point",
        "coordinates": [
          13.323958,
          52.45868704
        ]
      },
      "properties": {
        "name": "Rosenkranz-Basilika",
        "info": "Adresse: Kielerstr. 11, 12163 Berlin | Rollstuhlgerecht: nicht rollstuhlgerecht | Hinweis: Es erfolgt keine medizinische Betreuung. | Öffnungszeiten: Mo - Sa: 09:00 - 19:00 Uhr",
        "category": "Öffentlicher \"Kühler Raum\"",
        "source": "Berlin"
      }
    },
    {
      "type": "Feature",
      "geometry": {
        "type": "Point",
        "coordinates": [
          13.318561,
          52.45603304
        ]
      },
      "properties": {
        "name": "Matthäuskirche",
        "info": "Adresse: Schloßstr. 44a, 12165 Berlin | Rollstuhlgerecht: rollstuhlgerecht | Hinweis: Eine Toilette und der Zugang zu Trinkwasser sind vorhanden.\nEs erfolgt keine medizinische Betreuung. | Öffnungszeiten: Mi – So: 15:00 - 18:00 Uhr",
        "category": "Öffentlicher \"Kühler Raum\"",
        "source": "Berlin"
      }
    },
    {
      "type": "Feature",
      "geometry": {
        "type": "Point",
        "coordinates": [
          13.311587,
          52.42104804
        ]
      },
      "properties": {
        "name": "Dorfkirche Giesensdorf",
        "info": "Adresse: Ostpreußendamm 131a, 12207 Berlin | Rollstuhlgerecht: eingeschränkt rollstuhlgerecht | Hinweis: Es gibt eine kleine Schwelle, die durch Unterstützung des Personals überwindbar wäre.\nEine Toilette ist im Gemeindehaus verfügbar. \nTrinkwasser kann vor Ort erfragt werden. \nEs erfolgt keine medizinische Betreuung. | Öffnungszeiten: Fr: 15:00 - 17:00 Uhr",
        "category": "Öffentlicher \"Kühler Raum\"",
        "source": "Berlin"
      }
    },
    {
      "type": "Feature",
      "geometry": {
        "type": "Point",
        "coordinates": [
          13.25683,
          52.43544804
        ]
      },
      "properties": {
        "name": "Raum für Beteiligung",
        "info": "Adresse: Potsdamer Str. 50, 14163 Berlin | Rollstuhlgerecht: eingeschränkt rollstuhlgerecht | Hinweis: Es ist kein rollstuhlgerechtes WC vorhanden.\nTrinkwasser ist verfügbar. \nEs erfolgt keine medizinische Betreuung. | Öffnungszeiten: Mo: 14:00 - 17:00 Uhr; \nFr: 10:00 - 13:00 Uhr",
        "category": "Öffentlicher \"Kühler Raum\"",
        "source": "Berlin"
      }
    },
    {
      "type": "Feature",
      "geometry": {
        "type": "Point",
        "coordinates": [
          13.316448,
          52.43900304
        ]
      },
      "properties": {
        "name": "Gutshaus Lichterfelde Caféraum",
        "info": "Adresse: Hindenburgdamm 28, 12203 Berlin | Rollstuhlgerecht: rollstuhlgerecht | Hinweis: Eine Toilette und der Zugang zu Trinkwasser sind vorhanden.\nEs erfolgt keine medizinische Betreuung. | Öffnungszeiten: Di, Mi, Do: 10:00 - 16:00 Uhr",
        "category": "Öffentlicher \"Kühler Raum\"",
        "source": "Berlin"
      }
    },
    {
      "type": "Feature",
      "geometry": {
        "type": "Point",
        "coordinates": [
          13.257806,
          52.43390804
        ]
      },
      "properties": {
        "name": "Pauluskirche",
        "info": "Adresse: Kirchstraße 6, 14163 Berlin | Rollstuhlgerecht: rollstuhlgerecht | Hinweis: Eine Toilette und der Zugang zu Trinkwasser sind vorhanden.\nEs erfolgt keine medizinische Betreuung. | Öffnungszeiten: Mo, Mi, Fr: 11:00 - 14:00 Uhr; \nDi: 16:00 - 18:00 Uhr; \nDo: 14:00 - 16:00 Uhr; \nSa: 11:00 - 13:00 Uhr; \nSo: 09:30 - 11:30 Uhr; \nsowie an Hitzewarntagen: 14:00 - 18:00 Uhr",
        "category": "Öffentlicher \"Kühler Raum\"",
        "source": "Berlin"
      }
    },
    {
      "type": "Feature",
      "geometry": {
        "type": "Point",
        "coordinates": [
          13.341557,
          52.44945604
        ]
      },
      "properties": {
        "name": "Markuskirche",
        "info": "Adresse: Karl-Stieler-Str. 8a, 12167 Berlin | Rollstuhlgerecht: rollstuhlgerecht | Hinweis: Eine Toilette und der Zugang zu Trinkwasser sind vorhanden.\nEs erfolgt keine medizinische Betreuung. | Öffnungszeiten: So: 12:00 - 16:00 Uhr",
        "category": "Öffentlicher \"Kühler Raum\"",
        "source": "Berlin"
      }
    },
    {
      "type": "Feature",
      "geometry": {
        "type": "Point",
        "coordinates": [
          13.328048,
          52.42499104
        ]
      },
      "properties": {
        "name": "Petruskirche",
        "info": "Adresse: Oberhofer Platz 2, 12209 Berlin | Rollstuhlgerecht: rollstuhlgerecht | Hinweis: Eine Toilette und der Zugang zu Trinkwasser sind vorhanden.\nEs erfolgt keine medizinische Betreuung. | Öffnungszeiten: Mi, Sa: 10:00 - 13:00 Uhr",
        "category": "Öffentlicher \"Kühler Raum\"",
        "source": "Berlin"
      }
    },
    {
      "type": "Feature",
      "geometry": {
        "type": "Point",
        "coordinates": [
          13.250826,
          52.44882904
        ]
      },
      "properties": {
        "name": "Ev. Emmaus-Kirchengemeinde",
        "info": "Adresse: Onkel-Tom-Str. 80, 14169 Berlin | Rollstuhlgerecht: rollstuhlgerecht | Hinweis: Eine Toilette und der Zugang zu Trinkwasser sind vorhanden.\nEs erfolgt keine medizinische Betreuung. | Öffnungszeiten: Do: 12:00 - 18:00 Uhr",
        "category": "Öffentlicher \"Kühler Raum\"",
        "source": "Berlin"
      }
    },
    {
      "type": "Feature",
      "geometry": {
        "type": "Point",
        "coordinates": [
          13.361432,
          52.42683304
        ]
      },
      "properties": {
        "name": "Jugendfreizeiteinrichtung Wichura",
        "info": "Adresse: Wichurastr. 59, 12249 Berlin | Rollstuhlgerecht: rollstuhlgerecht | Hinweis: Eine Toilette und der Zugang zu Trinkwasser sind vorhanden.\nEs erfolgt keine medizinische Betreuung. | Öffnungszeiten: Mo - Do: 12:00 - 20:00 Uhr \nFr: 12:00 - 19:30 Uhr",
        "category": "Öffentlicher \"Kühler Raum\"",
        "source": "Berlin"
      }
    },
    {
      "type": "Feature",
      "geometry": {
        "type": "Point",
        "coordinates": [
          13.141849,
          52.41202904
        ]
      },
      "properties": {
        "name": "Kirche am Stölpchensee",
        "info": "Adresse: Wilhelmplatz 1, 14109 Berlin | Rollstuhlgerecht: nicht rollstuhlgerecht | Hinweis: Eine Toilette und der Zugang zu Trinkwasser sind vorhanden.\nEs erfolgt keine medizinische Betreuung. | Öffnungszeiten: Fr: 14:00 - 17:00 Uhr (nicht in den Schulferien)",
        "category": "Öffentlicher \"Kühler Raum\"",
        "source": "Berlin"
      }
    },
    {
      "type": "Feature",
      "geometry": {
        "type": "Point",
        "coordinates": [
          13.322377,
          52.45472804
        ]
      },
      "properties": {
        "name": "Nachbarschaftsladen Mittelhof",
        "info": "Adresse: Berlinickestr. 9, 12165 Berlin | Rollstuhlgerecht: eingeschränkt rollstuhlgerecht | Hinweis: Der Eingang ist über eine Rampe erreichbar, das WC nicht. Es gibt Trinkwasser, Sitzgelegenheiten, Toiletten, Unterhaltung/Spiele und W-LAN.\nEs erfolgt keine medizinische Betreuung. | Öffnungszeiten: ab 01.05: Di: 14:00 - 16:00 Uhr",
        "category": "Öffentlicher \"Kühler Raum\"",
        "source": "Berlin"
      }
    },
    {
      "type": "Feature",
      "geometry": {
        "type": "Point",
        "coordinates": [
          13.328102,
          52.41310004
        ]
      },
      "properties": {
        "name": "Nachbarschaftshaus Lilienthal",
        "info": "Adresse: Schütte-Lanz-Straße 41, NBH Lilienthal, 12209 Berlin | Rollstuhlgerecht: rollstuhlgerecht | Hinweis: Es gibt Trinkwasser, Sitzgelegenheiten, Toiletten und Unterhaltung/Spiele.\nEs erfolgt keine medizinische Betreuung. | Öffnungszeiten: Mo - Fr: 10:00 - 17:30 Uhr",
        "category": "Öffentlicher \"Kühler Raum\"",
        "source": "Berlin"
      }
    },
    {
      "type": "Feature",
      "geometry": {
        "type": "Point",
        "coordinates": [
          13.357173,
          52.42804904
        ]
      },
      "properties": {
        "name": "Kiezbüro Lankwitz",
        "info": "Adresse: Emmichstraße 8, 12249 Berlin | Rollstuhlgerecht: rollstuhlgerecht | Hinweis: Es gibt Trinkwasser, Sitzgelegenheiten, Toiletten, Unterhaltung/Spiele und W-LAN.\nEs erfolgt keine medizinische Betreuung. | Öffnungszeiten: Mo - Do: 10.00 - 16.00 Uhr",
        "category": "Öffentlicher \"Kühler Raum\"",
        "source": "Berlin"
      }
    },
    {
      "type": "Feature",
      "geometry": {
        "type": "Point",
        "coordinates": [
          13.266188,
          52.41325604
        ]
      },
      "properties": {
        "name": "Phoenix - Jugendfreizeiteinrichtung und Mehrgenerationenhaus (Mittelhof e.V.)",
        "info": "Adresse: Teltower Damm 228, 14167 Berlin | Rollstuhlgerecht: rollstuhlgerecht | Hinweis: Es gibt Trinkwasser, Sitzgelegenheiten, Toiletten, Unterhaltung/Spiele und W-LAN.\nEs erfolgt keine medizinische Betreuung. | Öffnungszeiten: Mo - Fr: 10:00 - 14:00 Uhr. Von 13:30 - 18:30 Uhr sind wir eine Jugendfreizeiteinrichtung für alle zwischen 10 - 27 Jahren.",
        "category": "Öffentlicher \"Kühler Raum\"",
        "source": "Berlin"
      }
    },
    {
      "type": "Feature",
      "geometry": {
        "type": "Point",
        "coordinates": [
          13.254387,
          52.43384604
        ]
      },
      "properties": {
        "name": "Stadtteilzentrum Villa Mittelhof",
        "info": "Adresse: Königstr. 42-43, 14163 Berlin | Rollstuhlgerecht: eingeschränkt rollstuhlgerecht | Hinweis: Es gibt Trinkwasser, Sitzgelegenheiten, Toiletten, Unterhaltungsangebote/Spiele und W-LAN.\nEs erfolgt keine medizinische Betreuung.\nEin rollstuhlgerechter Zugang ins Café ist nach Absprache möglich. | Öffnungszeiten: Mo - Do 9:00 - 18:00 Uhr \nFr 9:00 - 15:30 Uhr\nCafébetrieb: \nDi - Do: 10:00 - 18:00 Uhr \nFr: 10:00 - 15:00 Uhr",
        "category": "Öffentlicher \"Kühler Raum\"",
        "source": "Berlin"
      }
    },
    {
      "type": "Feature",
      "geometry": {
        "type": "Point",
        "coordinates": [
          13.352746,
          52.48917604
        ]
      },
      "properties": {
        "name": "Apostel-Paulus Kirche",
        "info": "Adresse: Grunewaldstraße 77 A, 10823 Berlin | Rollstuhlgerecht: rollstuhlgerecht | Hinweis: Es erfolgt keine medizinische Betreuung. | Öffnungszeiten: Mo - So: 12:00 - 18:00 Uhr",
        "category": "Öffentlicher \"Kühler Raum\"",
        "source": "Berlin"
      }
    },
    {
      "type": "Feature",
      "geometry": {
        "type": "Point",
        "coordinates": [
          13.341749,
          52.46803004
        ]
      },
      "properties": {
        "name": "Mobile Stadtteilarbeit des Nachbarschaftsheim Schöneberg",
        "info": "Adresse: Cranachstraße 7, 12157 Berlin | Rollstuhlgerecht: rollstuhlgerecht | Hinweis: Es erfolgt keine medizinische Betreuung. | Öffnungszeiten: Mo: 10:00 - 13:00 Uhr und 15:00 - 18:00 Uhr (an manchen Tagen auch durchgängig bis 18:00 Uhr); \nDi: 10:00 - 17:00 Uhr; \nMi: 10:00 - 15:00 Uhr, \nDo: 10:00 - 18:00 Uhr; \nFr: 10:00 - 14:00 Uhr\nAufgrund von kurzfristigen Ausfällen und Krankheiten kann zu Änderungen der Öffnungszeiten kommen. Erkundigen Sie sich gerne vorab telefonisch unter 030 / 32 50 12 97.",
        "category": "Öffentlicher \"Kühler Raum\"",
        "source": "Berlin"
      }
    },
    {
      "type": "Feature",
      "geometry": {
        "type": "Point",
        "coordinates": [
          13.359313,
          52.49862204
        ]
      },
      "properties": {
        "name": "Freizeitstätte 60+ HUZUR",
        "info": "Adresse: Bülowstr. 94, 10783 Berlin | Rollstuhlgerecht: rollstuhlgerecht | Hinweis: Es gibt Trinkwasser, Sitzgelegenheiten, Toiletten, Unterhaltung/Spiele und W-LAN. Bitte am Eingang klingeln.\nIm August steht dieser kühle Raum nicht zur Verfügung.\nEs erfolgt keine medizinische Betreuung. | Öffnungszeiten: Mo - Mi: 09:00 - 16:00 Uhr (ausgenommen August 2026)",
        "category": "Öffentlicher \"Kühler Raum\"",
        "source": "Berlin"
      }
    },
    {
      "type": "Feature",
      "geometry": {
        "type": "Point",
        "coordinates": [
          13.350664,
          52.48294104
        ]
      },
      "properties": {
        "name": "Stadtteilzentrum Schöneberg",
        "info": "Adresse: Hauptstraße 121 A, 10827 Berlin | Rollstuhlgerecht: rollstuhlgerecht | Hinweis: Es gibt Trinkwasser, Sitzgelegenheiten, Toiletten, Unterhaltungsmöglichkeiten/Spiele und W-LAN.\nEs erfolgt keine medizinische Betreuung. | Öffnungszeiten: Mo, Mi, Do: 10:00 - 15:00 Uhr;\nDi: 13:00 - 15:00 Uhr",
        "category": "Öffentlicher \"Kühler Raum\"",
        "source": "Berlin"
      }
    },
    {
      "type": "Feature",
      "geometry": {
        "type": "Point",
        "coordinates": [
          13.370617,
          52.42450804
        ]
      },
      "properties": {
        "name": "Stadtteilzentrum Marie-Li",
        "info": "Adresse: Bruno-Möhring-Straße 7-9, 12277 Berlin | Rollstuhlgerecht: nicht rollstuhlgerecht | Hinweis: Es gibt Trinkwasser, Sitzgelegenheiten, Toiletten, Unterhaltungsmöglichkeiten/Spiele und W-LAN.\nEs erfolgt keine medizinische Betreuung. | Öffnungszeiten: Mo: 13:00 - 16:00 Uhr;\nMi: 11:00 - 14:00 Uhr",
        "category": "Öffentlicher \"Kühler Raum\"",
        "source": "Berlin"
      }
    },
    {
      "type": "Feature",
      "geometry": {
        "type": "Point",
        "coordinates": [
          13.349767,
          52.49236104
        ]
      },
      "properties": {
        "name": "VHS Tempelhof-Schöneberg",
        "info": "Adresse: Barbarossaplatz 5, 10781 Berlin | Rollstuhlgerecht: rollstuhlgerecht | Hinweis: Es gibt Trinkwasser, Sitzgelegenheiten, Toiletten und W-LAN.\nFür aktuelle Informationen zu kurzfristigen Schließzeiten bitten wir Sie, die Website der VHS zu besuchen: https://www.berlin.de/vhs-tempelhof-schoeneberg/ \nEs erfolgt keine medizinische Betreuung. | Öffnungszeiten: Mo - Fr: 10:00-16:00 Uhr",
        "category": "Öffentlicher \"Kühler Raum\"",
        "source": "Berlin"
      }
    },
    {
      "type": "Feature",
      "geometry": {
        "type": "Point",
        "coordinates": [
          13.593357,
          52.44542404
        ]
      },
      "properties": {
        "name": "KIEZKLUB Allende",
        "info": "Adresse: Salvador-Allende-Straße 89, 12559 Berlin-Allende-Viertel | Rollstuhlgerecht: rollstuhlgerecht | Hinweis: Es ist ein rollstuhlgerechtes WC vorhanden.\nEs erfolgt keine medizinische Betreuung. | Öffnungszeiten: 01.06. - 31.08.: \nMo - Do: 09:00 - 17:00 Uhr; \nFr: 09:00 - 15:00 Uhr",
        "category": "Öffentlicher \"Kühler Raum\"",
        "source": "Berlin"
      }
    },
    {
      "type": "Feature",
      "geometry": {
        "type": "Point",
        "coordinates": [
          13.548629,
          52.43808604
        ]
      },
      "properties": {
        "name": "KIEZKLUB Alte Schule",
        "info": "Adresse: Dörpfeldstraße 54/56, 12489 Berlin-Adlershof | Rollstuhlgerecht: rollstuhlgerecht | Hinweis: Es erfolgt keine medizinische Betreuung. | Öffnungszeiten: 01.06. - 31.08.: \nMo - Fr: 09:00 - 17:00 Uhr",
        "category": "Öffentlicher \"Kühler Raum\"",
        "source": "Berlin"
      }
    },
    {
      "type": "Feature",
      "geometry": {
        "type": "Point",
        "coordinates": [
          13.571296,
          52.40171204
        ]
      },
      "properties": {
        "name": "KIEZKLUB Bohnsdorf",
        "info": "Adresse: Dahmestraße 33, 12526 Berlin-Bohnsdorf | Rollstuhlgerecht: rollstuhlgerecht | Hinweis: Es erfolgt keine medizinische Betreuung. | Öffnungszeiten: 01.06. - 31.08.: \nMo - Fr: 09:00 - 17:00 Uhr",
        "category": "Öffentlicher \"Kühler Raum\"",
        "source": "Berlin"
      }
    },
    {
      "type": "Feature",
      "geometry": {
        "type": "Point",
        "coordinates": [
          13.528686,
          52.40329704
        ]
      },
      "properties": {
        "name": "KIEZKLUB im Bürgerhaus Altglienicke",
        "info": "Adresse: Ortolfstraße 182-184, 12524 Berlin-Altglienicke | Rollstuhlgerecht: rollstuhlgerecht | Hinweis: Es erfolgt keine medizinische Betreuung. | Öffnungszeiten: 01.06. - 31.08.: \nDi: 12:00 - 16:00 Uhr; \nMi, Do: 09:00 - 17:00 Uhr (wenn keine Veranstaltungen tagen); \nFr: 12:00 - 15:00 Uhr",
        "category": "Öffentlicher \"Kühler Raum\"",
        "source": "Berlin"
      }
    },
    {
      "type": "Feature",
      "geometry": {
        "type": "Point",
        "coordinates": [
          13.731203,
          52.42872904
        ]
      },
      "properties": {
        "name": "KIEZKLUB Rahnsdorf",
        "info": "Adresse: Fürstenwalder Allee 362, 12589 Berlin-Rahnsdorf | Rollstuhlgerecht: rollstuhlgerecht | Hinweis: Ein rollstuhlgerechtes WC ist vorhanden. \nEinige Räume verfügen über eine kleine Schwelle, welche aber\nmit einem Rollstuhl überwindbar sind.\nEs erfolgt keine medizinische Betreuung. | Öffnungszeiten: 01.06. - 31.08.: \nMo - Fr: 09:00 - 17:00 Uhr",
        "category": "Öffentlicher \"Kühler Raum\"",
        "source": "Berlin"
      }
    },
    {
      "type": "Feature",
      "geometry": {
        "type": "Point",
        "coordinates": [
          13.502269,
          52.44353204
        ]
      },
      "properties": {
        "name": "KIEZKLUB Rathaus Johannisthal",
        "info": "Adresse: Sterndamm 102, 12487 Berlin-Johannisthal | Rollstuhlgerecht: rollstuhlgerecht | Hinweis: Es erfolgt keine medizinische Betreuung. | Öffnungszeiten: 01.06. - 31.08.: \nMo - Fr: 09:00 - 17:00 Uhr",
        "category": "Öffentlicher \"Kühler Raum\"",
        "source": "Berlin"
      }
    },
    {
      "type": "Feature",
      "geometry": {
        "type": "Point",
        "coordinates": [
          13.484511,
          52.46917904
        ]
      },
      "properties": {
        "name": "KIEZKLUB Treptow Kolleg",
        "info": "Adresse: Schöntaler Weg 21, 12437 Berlin-Baumschulenweg | Rollstuhlgerecht: rollstuhlgerecht | Hinweis: Es erfolgt keine medizinische Betreuung. | Öffnungszeiten: 01.06. - 31.08.: \nMo - Do: 09:00 - 17:00 Uhr; \nFr: 09:00 - 16:00 Uhr",
        "category": "Öffentlicher \"Kühler Raum\"",
        "source": "Berlin"
      }
    },
    {
      "type": "Feature",
      "geometry": {
        "type": "Point",
        "coordinates": [
          13.623067,
          52.45185604
        ]
      },
      "properties": {
        "name": "KIEZKLUB Vital",
        "info": "Adresse: Myliusgarten 20, 12587 Berlin-Friedrichshagen | Rollstuhlgerecht: rollstuhlgerecht | Hinweis: Ein rollstuhlgerechtes WC ist vorhanden.\nEs erfolgt keine medizinische Betreuung. | Öffnungszeiten: 01.06. - 31.08.: \nMo - Fr: 09:00 - 17:00 Uhr (je nach Raumbelegung)",
        "category": "Öffentlicher \"Kühler Raum\"",
        "source": "Berlin"
      }
    },
    {
      "type": "Feature",
      "geometry": {
        "type": "Point",
        "coordinates": [
          13.485597,
          52.46415904
        ]
      },
      "properties": {
        "name": "Regionales Begegnungszentrum Süd der Volkssolidarität e.V.",
        "info": "Adresse: Baumschulenstraße 31, 12437 Berlin-Baumschulenweg | Rollstuhlgerecht: rollstuhlgerecht | Hinweis: Die Räumlichkeiten sind im 2. Stock mit dem Aufzug für Rollstuhlfahrende ohne Barrieren erreichbar. \nEin rollstuhlgerechtes WC ist vorhanden.\nEs erfolgt keine medizinische Betreuung. | Öffnungszeiten: an Hitzetagen ab 30°C, \nMo - Fr: 09:00 - 16:00 Uhr",
        "category": "Öffentlicher \"Kühler Raum\"",
        "source": "Berlin"
      }
    },
    {
      "type": "Feature",
      "geometry": {
        "type": "Point",
        "coordinates": [
          13.579389,
          52.45465904
        ]
      },
      "properties": {
        "name": "Stadtteilzentrum Rabenhaus",
        "info": "Adresse: Puchanstraße 9, 12555 Berlin-Köpenick | Rollstuhlgerecht: rollstuhlgerecht | Hinweis: Der Eingang ist über eine Rampe erreichbar. \nEs ist ein eingeschränkt rollstuhlgerechtes WC vorhanden, welches bei Nutzung ggf. Hilfe bedarf.\nEs erfolgt keine medizinische Betreuung. | Öffnungszeiten: Mo, Mi: 10:00 - 17:00 Uhr (wenn keine Veranstaltungen tagen); \nDi, Do: 13:00 - 18:00 Uhr (wenn keine Veranstaltungen tagen)",
        "category": "Öffentlicher \"Kühler Raum\"",
        "source": "Berlin"
      }
    },
    {
      "type": "Feature",
      "geometry": {
        "type": "Point",
        "coordinates": [
          13.513329,
          52.45456704
        ]
      },
      "properties": {
        "name": "Villa offensiv (offensiv’91 e. V.)",
        "info": "Adresse: Hasselwerderstr.38-40, 12439 Berlin | Rollstuhlgerecht: rollstuhlgerecht | Hinweis: Es gibt einen Plattformlift (bis 275 kg Traglast), zu erreichen über den Weg im Gartenbereich. \nEs ist ein rollstuhlgerechtes WC vorhanden.\nEs erfolgt keine medizinische Betreuung. | Öffnungszeiten: Mo - So: 08:30 - 15:00 Uhr",
        "category": "Öffentlicher \"Kühler Raum\"",
        "source": "Berlin"
      }
    },
    {
      "type": "Feature",
      "geometry": {
        "type": "Point",
        "coordinates": [
          13.5731,
          52.44989204
        ]
      },
      "properties": {
        "name": "Katholische Kirche St. Antonius",
        "info": "Adresse: Lindenstraße 43, 12555 | Rollstuhlgerecht: eingeschränkt rollstuhlgerecht | Hinweis: Es gibt Trinkwasser, Sitzgelegenheiten und Toiletten.\nDie Kirche ist täglich über das Angebot \"Offene Kirche\" zugänglich und wird von verschiedenen \"Kirchenhüter:innen\" begleitet, feste Zeiten sind 14:00-16:00 Uhr.\nJeden Donnerstag gibt es das Angebot eines Kirchencafés, welches von der Sozialarbeiterin und Praktikantin in der Pfarrei begleitet wird.\nWeitere Zeiten sind jederzeit spontan möglich und werden dann durch einen Aufsteller vor der Kirchentür sichtbar gemacht. Bei fehlenden Kirchenhüter:innen bleibt die Kirche leider geschlossen.\nEs erfolgt keine medizinische Betreuung. | Öffnungszeiten: Mo - So: 14:00 - 16:00 Uhr",
        "category": "Öffentlicher \"Kühler Raum\"",
        "source": "Berlin"
      }
    },
    {
      "type": "Feature",
      "geometry": {
        "type": "Point",
        "coordinates": [
          13.517973,
          52.46028004
        ]
      },
      "properties": {
        "name": "Industriesalon Schöneweide",
        "info": "Adresse: Reinbeckstraße 10, 12459 Berlin | Rollstuhlgerecht: rollstuhlgerecht | Hinweis: Es gibt Trinkwasser, Sitzgelegenheiten, Toiletten, Unterhaltungsmöglichkeiten/Spiele und W-LAN.\nEs erfolgt keine medizinische Betreuung. | Öffnungszeiten: Do - So: 14:00 - 18:00 Uhr",
        "category": "Öffentlicher \"Kühler Raum\"",
        "source": "Berlin"
      }
    }
  ]
}
