{
  "type": "FeatureCollection",
  "features": [
    {
      "type": "Feature",
      "geometry": {
        "type": "Point",
        "coordinates": [
          13.393541,
          52.52954404
        ]
      },
      "properties": {
        "name": "Stadtbad Mitte - James Simon",
        "info": "Hinweis: Die Öffnungszeiten können im Sommer variieren.",
        "category": "Schwimmhalle",
        "source": "Berlin"
      }
    },
    {
      "type": "Feature",
      "geometry": {
        "type": "Point",
        "coordinates": [
          13.404693,
          52.51248604
        ]
      },
      "properties": {
        "name": "Schwimmhalle Fischerinsel",
        "info": "Hinweis: Die Öffnungszeiten können im Sommer variieren.",
        "category": "Schwimmhalle",
        "source": "Berlin"
      }
    },
    {
      "type": "Feature",
      "geometry": {
        "type": "Point",
        "coordinates": [
          13.359621,
          52.52742804
        ]
      },
      "properties": {
        "name": "Stadtbad Tiergarten",
        "info": "Hinweis: Die Öffnungszeiten können im Sommer variieren.",
        "category": "Schwimmhalle",
        "source": "Berlin"
      }
    },
    {
      "type": "Feature",
      "geometry": {
        "type": "Point",
        "coordinates": [
          13.36132,
          52.55687004
        ]
      },
      "properties": {
        "name": "Kombibad Seestraße Hallenbad",
        "info": "Hinweis: Die Öffnungszeiten können im Sommer variieren.",
        "category": "Schwimmhalle",
        "source": "Berlin"
      }
    },
    {
      "type": "Feature",
      "geometry": {
        "type": "Point",
        "coordinates": [
          13.443238,
          52.54310504
        ]
      },
      "properties": {
        "name": "Schwimmhalle Thomas-Mann-Straße",
        "info": "Hinweis: Die Öffnungszeiten können im Sommer variieren.",
        "category": "Schwimmhalle",
        "source": "Berlin"
      }
    },
    {
      "type": "Feature",
      "geometry": {
        "type": "Point",
        "coordinates": [
          13.433781,
          52.54097104
        ]
      },
      "properties": {
        "name": "Schwimmhalle Ernst-Thälmann-Park",
        "info": "Hinweis: Die Öffnungszeiten können im Sommer variieren.",
        "category": "Schwimmhalle",
        "source": "Berlin"
      }
    },
    {
      "type": "Feature",
      "geometry": {
        "type": "Point",
        "coordinates": [
          13.43213,
          52.49808404
        ]
      },
      "properties": {
        "name": "Wellenbad am Spreewaldplatz",
        "info": "Hinweis: Das Bad wird saniert.",
        "category": "Schwimmhalle",
        "source": "Berlin"
      }
    },
    {
      "type": "Feature",
      "geometry": {
        "type": "Point",
        "coordinates": [
          13.351027,
          52.48470104
        ]
      },
      "properties": {
        "name": "Stadtbad Schöneberg - Hans Rosenthal",
        "info": "Hinweis: Die Öffnungszeiten können im Sommer variieren.",
        "category": "Schwimmhalle",
        "source": "Berlin"
      }
    },
    {
      "type": "Feature",
      "geometry": {
        "type": "Point",
        "coordinates": [
          13.35547,
          52.47655604
        ]
      },
      "properties": {
        "name": "Sport- und Lehrschwimmhalle\nSchöneberg",
        "info": "Hinweis: Die Öffnungszeiten können im Sommer variieren.",
        "category": "Schwimmhalle",
        "source": "Berlin"
      }
    },
    {
      "type": "Feature",
      "geometry": {
        "type": "Point",
        "coordinates": [
          13.308833,
          52.51452504
        ]
      },
      "properties": {
        "name": "Stadtbad Charlottenburg -Alte Halle-",
        "info": "Hinweis: Die Öffnungszeiten können im Sommer variieren.",
        "category": "Schwimmhalle",
        "source": "Berlin"
      }
    },
    {
      "type": "Feature",
      "geometry": {
        "type": "Point",
        "coordinates": [
          13.194603,
          52.55475004
        ]
      },
      "properties": {
        "name": "Stadtbad Spandau Nord",
        "info": "Hinweis: Die Öffnungszeiten können im Sommer variieren.",
        "category": "Schwimmhalle",
        "source": "Berlin"
      }
    },
    {
      "type": "Feature",
      "geometry": {
        "type": "Point",
        "coordinates": [
          13.188406,
          52.51820904
        ]
      },
      "properties": {
        "name": "Kombibad Spandau Süd Hallenbad",
        "info": "Hinweis: Die Öffnungszeiten können im Sommer variieren.",
        "category": "Schwimmhalle",
        "source": "Berlin"
      }
    },
    {
      "type": "Feature",
      "geometry": {
        "type": "Point",
        "coordinates": [
          13.314487,
          52.48050904
        ]
      },
      "properties": {
        "name": "Stadtbad Wilmersdorf I",
        "info": "Hinweis: Die Öffnungszeiten können im Sommer variieren.",
        "category": "Schwimmhalle",
        "source": "Berlin"
      }
    },
    {
      "type": "Feature",
      "geometry": {
        "type": "Point",
        "coordinates": [
          13.301005,
          52.48597904
        ]
      },
      "properties": {
        "name": "Stadtbad Wilmersdorf II",
        "info": "Hinweis: Die Öffnungszeiten können im Sommer variieren.",
        "category": "Schwimmhalle",
        "source": "Berlin"
      }
    },
    {
      "type": "Feature",
      "geometry": {
        "type": "Point",
        "coordinates": [
          13.267723,
          52.45376304
        ]
      },
      "properties": {
        "name": "Schwimmhalle Hüttenweg",
        "info": "Hinweis: Die Öffnungszeiten können im Sommer variieren.",
        "category": "Schwimmhalle",
        "source": "Berlin"
      }
    },
    {
      "type": "Feature",
      "geometry": {
        "type": "Point",
        "coordinates": [
          13.347254,
          52.57550904
        ]
      },
      "properties": {
        "name": "Paracelsus-Bad",
        "info": "Hinweis: Das Bad wird saniert.",
        "category": "Schwimmhalle",
        "source": "Berlin"
      }
    },
    {
      "type": "Feature",
      "geometry": {
        "type": "Point",
        "coordinates": [
          13.353184,
          52.59859904
        ]
      },
      "properties": {
        "name": "Stadtbad Märkisches Viertel",
        "info": "Hinweis: Die Öffnungszeiten können im Sommer variieren.",
        "category": "Schwimmhalle",
        "source": "Berlin"
      }
    },
    {
      "type": "Feature",
      "geometry": {
        "type": "Point",
        "coordinates": [
          13.343338,
          52.44194604
        ]
      },
      "properties": {
        "name": "Stadtbad Lankwitz",
        "info": "Hinweis: Die Öffnungszeiten können im Sommer variieren.",
        "category": "Schwimmhalle",
        "source": "Berlin"
      }
    },
    {
      "type": "Feature",
      "geometry": {
        "type": "Point",
        "coordinates": [
          13.297825,
          52.43193404
        ]
      },
      "properties": {
        "name": "Schwimmhalle Finckensteinallee",
        "info": "Hinweis: Die Öffnungszeiten können im Sommer variieren.",
        "category": "Schwimmhalle",
        "source": "Berlin"
      }
    },
    {
      "type": "Feature",
      "geometry": {
        "type": "Point",
        "coordinates": [
          13.389351,
          52.46392504
        ]
      },
      "properties": {
        "name": "Stadtbad Tempelhof",
        "info": "Hinweis: Die Öffnungszeiten können im Sommer variieren.",
        "category": "Schwimmhalle",
        "source": "Berlin"
      }
    },
    {
      "type": "Feature",
      "geometry": {
        "type": "Point",
        "coordinates": [
          13.401606,
          52.41999204
        ]
      },
      "properties": {
        "name": "Kombibad Mariendorf - Hallenbad",
        "info": "Hinweis: Das Bad wird saniert.",
        "category": "Schwimmhalle",
        "source": "Berlin"
      }
    },
    {
      "type": "Feature",
      "geometry": {
        "type": "Point",
        "coordinates": [
          13.439732,
          52.47919504
        ]
      },
      "properties": {
        "name": "Stadtbad Neukölln",
        "info": "Hinweis: Die Öffnungszeiten können im Sommer variieren.",
        "category": "Schwimmhalle",
        "source": "Berlin"
      }
    },
    {
      "type": "Feature",
      "geometry": {
        "type": "Point",
        "coordinates": [
          13.469969,
          52.42770604
        ]
      },
      "properties": {
        "name": "Kombibad Gropiusstadt - Hallenbad",
        "info": "Hinweis: Die Öffnungszeiten können im Sommer variieren.",
        "category": "Schwimmhalle",
        "source": "Berlin"
      }
    },
    {
      "type": "Feature",
      "geometry": {
        "type": "Point",
        "coordinates": [
          13.494177,
          52.47020804
        ]
      },
      "properties": {
        "name": "Schwimmhalle Baumschulenweg",
        "info": "Hinweis: Die Öffnungszeiten können im Sommer variieren.",
        "category": "Schwimmhalle",
        "source": "Berlin"
      }
    },
    {
      "type": "Feature",
      "geometry": {
        "type": "Point",
        "coordinates": [
          13.539519,
          52.46007704
        ]
      },
      "properties": {
        "name": "Kleine Schwimmhalle Wuhlheide",
        "info": "Hinweis: Die Öffnungszeiten können im Sommer variieren.",
        "category": "Schwimmhalle",
        "source": "Berlin"
      }
    },
    {
      "type": "Feature",
      "geometry": {
        "type": "Point",
        "coordinates": [
          13.587684,
          52.44241004
        ]
      },
      "properties": {
        "name": "Schwimmhalle Allendeviertel",
        "info": "Hinweis: Die Öffnungszeiten können im Sommer variieren.",
        "category": "Schwimmhalle",
        "source": "Berlin"
      }
    },
    {
      "type": "Feature",
      "geometry": {
        "type": "Point",
        "coordinates": [
          13.515829,
          52.49565904
        ]
      },
      "properties": {
        "name": "Schwimmhalle Sewanstraße",
        "info": "Hinweis: Die Öffnungszeiten können im Sommer variieren.",
        "category": "Schwimmhalle",
        "source": "Berlin"
      }
    },
    {
      "type": "Feature",
      "geometry": {
        "type": "Point",
        "coordinates": [
          13.472027,
          52.53073204
        ]
      },
      "properties": {
        "name": "Schwimmhalle Anton-Saefkow-Platz",
        "info": "Hinweis: Die Öffnungszeiten können im Sommer variieren.",
        "category": "Schwimmhalle",
        "source": "Berlin"
      }
    },
    {
      "type": "Feature",
      "geometry": {
        "type": "Point",
        "coordinates": [
          13.491916,
          52.62875204
        ]
      },
      "properties": {
        "name": "Schwimmhalle Buch",
        "info": "Hinweis: Die Öffnungszeiten können im Sommer variieren.",
        "category": "Schwimmhalle",
        "source": "Berlin"
      }
    },
    {
      "type": "Feature",
      "geometry": {
        "type": "Point",
        "coordinates": [
          13.541545,
          52.52796804
        ]
      },
      "properties": {
        "name": "Schwimmhalle Helene-Weigel-Platz \"Helmut Behrendt\"",
        "info": "Hinweis: Die Öffnungszeiten können im Sommer variieren.",
        "category": "Schwimmhalle",
        "source": "Berlin"
      }
    },
    {
      "type": "Feature",
      "geometry": {
        "type": "Point",
        "coordinates": [
          13.503026,
          52.56631804
        ]
      },
      "properties": {
        "name": "Schwimmhalle Zingster Straße",
        "info": "Hinweis: Die Öffnungszeiten können im Sommer variieren.",
        "category": "Schwimmhalle",
        "source": "Berlin"
      }
    },
    {
      "type": "Feature",
      "geometry": {
        "type": "Point",
        "coordinates": [
          13.585517,
          52.52102004
        ]
      },
      "properties": {
        "name": "Schwimmhalle Kaulsdorf",
        "info": "Hinweis: Die Öffnungszeiten können im Sommer variieren.",
        "category": "Schwimmhalle",
        "source": "Berlin"
      }
    },
    {
      "type": "Feature",
      "geometry": {
        "type": "Point",
        "coordinates": [
          13.452628,
          52.52917204
        ]
      },
      "properties": {
        "name": "SSE  /  Schwimm- und Sprunghalle im Europasportpark",
        "info": "Hinweis: Die Öffnungszeiten können im Sommer variieren.",
        "category": "Schwimmhalle",
        "source": "Berlin"
      }
    },
    {
      "type": "Feature",
      "geometry": {
        "type": "Point",
        "coordinates": [
          13.402198,
          52.49813304
        ]
      },
      "properties": {
        "name": "Schwimmhalle Kreuzberg",
        "info": "Hinweis: Die Öffnungszeiten können im Sommer variieren.",
        "category": "Schwimmhalle",
        "source": "Berlin"
      }
    }
  ]
}
