{
  "type": "FeatureCollection",
  "features": [
    {
      "type": "Feature",
      "geometry": {
        "type": "Point",
        "coordinates": [
          13.4127555,
          52.5220209
        ]
      },
      "properties": {
        "name": "Trinkbrunnen Test",
        "info": "Trinkbrunnen",
        "category": "Trinkbrunnen",
        "source": "Timmy Tester"
      }
    },
        {
      "type": "Feature",
      "geometry": {
        "type": "Point",
        "coordinates": [
          13.4094081,
          52.5208263
        ]
      },
      "properties": {
        "name": "Turm",
        "info": "Tolle Aussicht hier und kühl!",
        "category": "Mein Tip",
        "source": "Timmy Tester"
      }
    }
  ]
}
